{
  "type": "FeatureCollection",
  "features": [
    {
      "type": "Feature",
      "properties": {
        "name": "第一次战役路线（1840.6-1841.1）",
        "note": "英军封锁珠江口→北上攻占定海→直抵大沽口，迫使清政府撤换林则徐、派琦善谈判。",
        "color": "#dc2626",
        "category": "1840年英军北犯"
      },
      "geometry": {
        "type": "LineString",
        "coordinates": [
          [113.55, 22.20],
          [114.30, 22.55],
          [116.70, 23.35],
          [118.10, 24.45],
          [120.20, 27.80],
          [121.80, 29.90],
          [122.20, 30.00],
          [121.50, 32.00],
          [119.60, 34.60],
          [118.20, 37.80],
          [117.70, 39.00]
        ]
      }
    }
  ]
}
