{
  "type": "FeatureCollection",
  "features": [
    {
      "type": "Feature",
      "properties": {
        "name": "第二次战役路线（1841.8-1842.8）",
        "note": "英军再犯东南沿海：厦门→定海→镇海→宁波→吴淞→镇江，最终兵临江宁（南京）城下，迫使签订《南京条约》。",
        "color": "#f59e0b",
        "category": "1841-42年英军沿江进攻"
      },
      "geometry": {
        "type": "LineString",
        "coordinates": [
          [113.55, 22.20],
          [118.10, 24.45],
          [122.20, 30.00],
          [121.55, 29.88],
          [121.70, 29.95],
          [121.45, 31.40],
          [119.45, 32.20],
          [118.80, 32.06]
        ]
      }
    }
  ]
}
