{"type": "FeatureCollection", "features": [{"type": "Feature", "properties": {"NAME_CH": "三国（疆域沿用汉末轮廓）", "NAME_EN": "Satavahanihara", "POWER": "三国（疆域沿用汉末轮廓）", "LEVEL": "country", "source": "historical-basemaps"}, "geometry": {"type": "MultiPolygon", "coordinates": [[[[73.03224302031273, 18.215689800322718], [79.63710286456018, 21.35227581139939], [80.61705181615513, 21.01667685537372], [80.42240442166025, 20.043439882899285], [80.68417160736027, 19.345394054365894], [82.86556482152712, 19.170882597232545], [84.26165647859388, 19.258138325799223], [84.75349051589534, 19.02801643635877], [84.65877059420698, 18.933131776765627], [84.32450759163291, 18.53029366639126], [84.2627287240898, 18.455840669587893], [83.9876814218437, 18.20749434085254], [83.68471816500777, 18.08344992251758], [83.38139632662886, 17.71067961306934], [83.07697585543745, 17.500392518953127], [82.84608708480508, 17.383410614907284], [82.74959090670698, 17.33451994510059], [82.5464201303398, 17.226087175325198], [82.35399917086714, 17.085914216951174], [82.26742080172652, 16.857019029573244], [82.23458388766402, 16.647302232698244], [82.08141616305464, 16.46274145694141], [81.78898147067183, 16.32870253177051], [81.59676650485152, 16.30287703128223], [81.36909774264448, 16.34686430545215], [81.25310042819136, 16.22591169925098], [81.0879011484062, 15.826792322114748], [80.96311477145308, 15.723398767427248], [80.73596480807417, 15.837270341829104], [80.45975783785933, 15.773146234468264], [80.30021956881636, 15.64574297519092], [80.16343215426558, 15.391318880037112], [80.08940413912886, 15.175155244783205], [80.0870695444023, 14.946433626130862], [80.16166213473433, 14.254099451020998], [80.16971877535933, 13.89198549838428], [80.07589248141402, 13.669416986421389], [80.17812636813277, 13.52351626010303], [80.20183669122476, 13.491685502285232], [80.31988051852339, 13.333213411287112], [78.9390570360268, 12.975725868998712], [77.63022110752668, 12.975725868998712], [74.77759773639649, 13.527907138893337], [74.73362258395308, 13.683358751252932], [74.70298936209608, 13.75127050916374], [74.52085177984029, 14.155057072991605], [74.42143634916296, 14.375454283976262], [74.40150741061323, 14.419635377839846], [74.37707415187174, 14.461922598887266], [74.15313195022644, 14.849504684560506], [74.03218368014448, 15.058832727388186], [73.84143355807417, 15.390475831941409], [73.57273391207808, 16.037927232698244], [73.50805146588431, 16.243956660049577], [73.49423716335616, 16.287958595761864], [73.40928939303511, 16.558538042024416], [73.39573464248808, 16.6164075182339], [73.18471275460493, 17.51732606174848], [73.06422713717573, 18.031716905549807], [73.03224302031273, 18.215689800322718]]]]}}, {"type": "Feature", "properties": {"NAME_CH": "三国（疆域沿用汉末轮廓）", "NAME_EN": "Han", "POWER": "三国（疆域沿用汉末轮廓）", "LEVEL": "country", "source": "historical-basemaps"}, "geometry": {"type": "MultiPolygon", "coordinates": [[[[126.0525007577812, 37.60090597720508], [125.90900710543745, 37.51145514102344], [125.74116805514448, 37.78495367617969], [125.56173995455855, 37.835548006013674], [125.26937392672652, 37.484683595613284], [125.18160537203902, 37.656444154695315], [125.07696059664839, 37.77087362857227], [124.76971724948042, 37.935855470613284], [124.69365981539839, 38.13954123111133], [124.73619368991011, 38.2797809466875], [124.9293547006523, 38.46493872256641], [125.26861098727339, 38.56758078189258], [125.29374221285933, 38.68870123477344], [125.02792647799605, 38.81562002749805], [125.21087935885542, 39.211165986970705], [125.29609206637495, 39.36432608218555], [125.20653823336714, 39.48528250308399], [124.92233565768355, 39.61860617251758], [124.85995772799605, 39.618480287507815], [124.68842605074995, 39.60537680240039], [124.54809096774214, 39.541339479402346], [124.44284347018355, 39.5730052814043], [124.20898726901167, 39.738326631501955], [124.14974443433084, 39.821007217062956], [124.13388350924605, 39.843143068269534], [124.11079128229116, 39.875402442397956], [124.10407546481245, 39.884784303621096], [123.91652968844527, 39.80788382144336], [123.36642745455855, 39.74938925357227], [123.03905776461714, 39.67220266909961], [122.02749160250777, 39.25575979800586], [121.74316695651167, 39.08944662661914], [121.48840621432417, 38.878604494050784], [121.21647933444136, 38.75695761294727], [121.06533339938277, 38.750281892732424], [121.12369826754683, 38.865123353914065], [121.51177504977339, 39.171859346345705], [121.66015151461714, 39.33151587100391], [121.44896224459761, 39.38210257144336], [121.28217605074995, 39.349891267732424], [121.21334365328902, 39.4836383685625], [121.23940566500777, 39.55383261294727], [121.66813186129683, 39.905406557039065], [121.78898910006636, 40.07807882876758], [122.03651717623823, 40.26403769107227], [122.10791305026167, 40.35372122378711], [122.08235457858198, 40.488013826326174], [121.75361922701948, 40.73695334048633], [121.42673018893355, 40.86432608218555], [121.36801436862105, 40.8706127032793], [121.08527663668745, 40.85723455996875], [121.01060775241011, 40.85068091006641], [120.78842452487105, 40.683814607576174], [120.27274611910933, 40.151771150544924], [120.11272719821089, 40.08110388369922], [119.82381728610152, 40.04216345401172], [119.54778579196089, 39.93304403872852], [119.38549331149214, 39.84343298526172], [119.21067336520308, 39.63902624698047], [119.14941695651167, 39.45397909732227], [119.09059432467573, 39.33910330386524], [118.97764113864058, 39.22413595767383], [118.78126815280073, 39.166358552888674], [118.5593366952812, 39.172286592439455], [118.41243270358198, 39.050880037263674], [118.27459243258589, 38.999610506013674], [118.06992629489058, 39.254188142732424], [117.91011336764448, 39.26024206729297], [117.75288680514448, 39.20253714175586], [117.57505324801558, 38.91533621402149], [117.5101031883138, 38.765569426106104], [117.43950179537886, 38.60277136416797], [117.4790373178398, 38.44991644473438], [117.58946517428511, 38.28448065371875], [117.84067061862105, 38.16392096133594], [118.20027450045698, 38.04361303897266], [118.74464705905073, 38.06383474917774], [118.87524703463667, 37.94942816348438], [118.86725905856245, 37.707374177888674], [118.81164840182417, 37.44613226504688], [118.83700087985152, 37.20421560855274], [118.9546003671562, 37.07711752505664], [119.28440383395308, 37.04596670718555], [119.59885695895308, 37.11661871524219], [119.94069961032027, 37.3529125079668], [120.16939071139448, 37.57625540347461], [120.41806319674605, 37.67865713687305], [120.6581144662773, 37.73646505923633], [120.78740218600386, 37.70487555117969], [121.18977645358198, 37.42548330874805], [121.43434432467573, 37.336837373689455], [121.89484694918745, 37.37596472354297], [122.05756667574995, 37.363563142732424], [122.26948836764448, 37.30032309146289], [122.3928556772148, 37.300574861482424], [122.28126815280073, 36.982005678132815], [122.25558761080855, 36.73369177432422], [121.98012832125777, 36.822249971345705], [121.84669784030073, 36.86017569156055], [121.60988143405073, 36.83422812075977], [120.85548690280073, 36.584449373201174], [120.53731063326948, 36.386519990876955], [120.50483230074995, 36.05556830020313], [120.26971724948042, 35.98509558291797], [120.20366958102339, 36.035865388826174], [120.19649032076948, 36.15673788638477], [120.13933852633589, 36.194800935701174], [119.91377547701948, 36.143443666414065], [119.97557357272261, 35.933597169832034], [119.90734389742964, 35.76805838199024], [119.68883040866011, 35.54497107119922], [119.06016066989058, 35.0412670001543], [119.00324538668745, 34.939471803621096], [119.02086165866011, 34.691932283357424], [119.29992202242964, 34.59093054385547], [119.62047866305464, 34.36938437075977], [119.97359755953902, 34.13522299380664], [120.14943221530073, 33.894332490876955], [120.34028151949995, 33.33605536075], [120.64058974703902, 33.04462393374805], [120.71938613375777, 32.84798391909961], [120.66086104830855, 32.54311712832813], [120.73830703219527, 32.46073492617969], [121.05076125582808, 32.328048311189455], [121.23053267916792, 32.06176718325977], [121.48366836032027, 31.948009096101565], [121.60595992526167, 31.827626787141604], [121.64503768405073, 31.688027940706057], [121.62330916842573, 31.618154130891604], [121.26826766451948, 31.45233877749805], [121.30788711032027, 31.420663438752932], [121.49887374362105, 31.28138693423633], [121.64023116549605, 30.92612036319141], [121.6318693490898, 30.792768083528323], [121.56893447360152, 30.710101686433596], [121.32843306979292, 30.690547548250002], [121.03547194918745, 30.594703279451174], [120.60866836032027, 30.346181474641604], [120.22693160494917, 30.25015028567676], [119.94366744479292, 30.1162181720293], [120.26755050143355, 30.021649919465823], [120.43786147555464, 29.99661024661426], [120.86273482760542, 30.187980256990237], [121.08252242526167, 30.213830553010744], [121.15524581393355, 30.18857916446094], [121.3912687631523, 29.92239721866016], [121.56523421725386, 29.846555314973635], [121.77031997164839, 29.834281526521487], [121.77436355074995, 29.76445349307422], [121.67039016207808, 29.624536119416994], [121.49843886813277, 29.522582612947268], [121.36191085299605, 29.414350114778323], [121.41146377047652, 29.344604097322268], [121.55819991549605, 29.357616029695315], [121.64916518649214, 29.319707475618166], [121.56675246676558, 29.173480592683596], [121.43251326998823, 28.836659990266604], [121.3458357187187, 28.54437979312305], [121.35852340182417, 28.385663591340823], [121.25970748385542, 28.182250581697268], [121.16591170748823, 28.124896608308596], [121.00856307467573, 28.276980958894534], [120.94237807711714, 28.213330827668948], [120.68650344332808, 27.86989554019336], [120.50590041598433, 27.590104661897463], [120.40887740573042, 27.310491167024416], [120.35180953463667, 27.177013002351565], [120.08409408053511, 26.985940538362307], [119.97135451754683, 26.788837037996096], [119.85703566989058, 26.706031404451174], [119.60071090182417, 26.692800126985354], [119.42890456637495, 26.590831361726565], [119.55488875826948, 26.2672134265459], [119.43603042086714, 26.038339220002932], [119.4703474374687, 25.77168234439258], [119.42860701998823, 25.65092619510059], [119.33538344821089, 25.530067048982424], [119.0958586069023, 25.440650545076174], [119.02366927584761, 25.313485704377932], [118.94535354098433, 25.135495744661135], [118.81294539889448, 24.84941443057422], [118.53120711764448, 24.69003637881641], [118.34562972506636, 24.467338167146487], [118.12423995455855, 24.530391298250002], [117.92490676364058, 24.56172712893848], [117.86126235446089, 24.510774217561526], [117.79609206637495, 24.42171438784961], [117.84909347018355, 24.047095857576174], [117.75324538668745, 23.98338469119434], [117.4058943124687, 23.690473161653323], [117.24540236910933, 23.632972322419924], [116.96271041354292, 23.556155763582034], [116.70913222750777, 23.34602316470508], [116.4520597787773, 23.250201784089846], [116.40389541110152, 23.19928701968555], [116.40021804293745, 22.983321748689455], [116.34061721285933, 22.9133315906084], [116.08469680270308, 22.88737829776172], [115.86004928073042, 22.83609541507129], [115.70670608004683, 22.638873659089846], [115.5425138803398, 22.695684038118166], [115.30879500826948, 22.771407686189455], [115.18552688082808, 22.745751939729494], [115.04353621920698, 22.599364839509768], [114.8478117319023, 22.510015092805666], [114.5587492319023, 22.464948259309573], [114.53746322116011, 22.674502931550784], [114.30387404879683, 22.64860113711719], [113.98913863619917, 22.55266722293262], [113.84516433199995, 22.463439546541018], [113.71678451022261, 22.482215486482424], [113.53598311862105, 22.704146944001955], [113.46257308444136, 22.77385290713672], [113.3766203256523, 22.646646104768557], [113.41929152926558, 22.570508562043948], [113.39908889254683, 22.47519262881641], [113.37770369967573, 22.16390760989551], [113.28367904147261, 22.030330263093752], [113.09672072848433, 21.979121767], [112.87131026705855, 22.061215959504885], [112.8155622812187, 21.934060655549807], [112.81533339938277, 21.826074205354494], [112.7495222421562, 21.756068788484377], [112.47251418551558, 21.73007734866504], [112.30786422213667, 21.678912721589846], [112.03952315768355, 21.65928991885547], [111.83120254000777, 21.754121385530276], [111.73399642428511, 21.709455095247073], [111.53608230074995, 21.493072114900393], [111.43422225436323, 21.461099229768557], [111.08559707125777, 21.479402147249026], [110.74959853610152, 21.37706335635547], [110.5664167734062, 21.23057707400684], [110.36344436129683, 21.24285276980762], [110.23882583102339, 21.280696474031252], [110.23382094821089, 21.25528486819629], [110.20257094821089, 21.096425615266604], [110.07242873629683, 20.91828878970508], [110.07721999606245, 20.867482744172854], [110.29317000826948, 20.582110963777346], [110.41411879977339, 20.52519568057422], [110.43365767916792, 20.436297975496096], [110.27128890475386, 20.315265260652346], [109.9282560678398, 20.244672380403323], [109.71159652194136, 20.56816252322559], [109.60293105563277, 20.879180513337893], [109.60814956149214, 21.057046495393557], [109.78676131686323, 21.406783662751955], [109.7798185678398, 21.482984147981448], [109.51607802828902, 21.596772752717776], [109.4143171640312, 21.56479414554004], [109.32187941989058, 21.43120153994922], [109.11740401705855, 21.39900930972461], [108.81303695162886, 21.493642412141604], [108.55499556979292, 21.823396287874026], [108.46664718112105, 21.785104356721682], [108.45892623385542, 21.708860002473635], [108.38727096041792, 21.530852876619143], [108.26594069918745, 21.47342451663379], [108.11670211276167, 21.498511873201174], [107.90002730807417, 21.4790054187334], [107.87561324557417, 21.462068162874026], [107.78977492770308, 21.402537904695315], [107.41781142672652, 21.185786806062502], [107.46579268893355, 20.976270280793948], [107.37433913668745, 20.88079222293262], [106.8070402475273, 20.905006013826174], [106.7462492319023, 20.815949998811526], [106.77157119235152, 20.638139329866213], [106.64429000338667, 20.466365419343752], [106.38092330416792, 20.11008795352344], [106.28142837008589, 20.046357713655276], [106.04167464694136, 19.937850557283205], [105.96486953219527, 19.880523286775393], [105.84338668307417, 19.702409349397463], [105.70696547946089, 19.282880388215823], [105.53258040866011, 18.84421118350391], [105.65331557711714, 18.742835603669924], [105.86413100680464, 18.489196382478518], [106.36444381198042, 18.007497392610354], [106.37519362887495, 17.899535737947268], [106.39383986910933, 17.66453894229297], [105.49111525118296, 17.78037429360783], [104.381091260999, 18.327951476868094], [103.56705112291327, 19.601992926903005], [103.23424489274952, 20.122862736904715], [102.38374905915764, 24.010010112632223], [102.01116318481407, 24.68066468645064], [101.61952299239024, 24.780086200740953], [100.4148339916291, 25.0859077354596], [99.75235985073353, 27.47081464268358], [102.67261520616206, 31.73570751083356], [103.89419540609549, 31.648451782266886], [103.71968394896214, 33.044543439333665], [103.5451724918288, 34.78965801066714], [102.93438239186209, 35.22593665350051], [101.887313649062, 35.40044811063385], [101.10201209196194, 35.5749595677672], [100.2294548062952, 35.5749595677672], [100.84024490626192, 37.14556268196733], [98.83336314922842, 38.36714288190077], [96.33252638079846, 39.466798535991856], [94.73234390659475, 40.02500172466757], [94.64508817802808, 40.46128036750093], [95.08136682086145, 40.81030328176763], [96.39020274936155, 40.897559010334305], [97.52452722072832, 41.15932619603432], [98.2225730492617, 41.50834911030102], [98.292021315825, 41.49677439920713], [98.74610742066174, 41.421093381734345], [98.48434023496172, 39.85049026753422], [99.44415324919514, 39.67597881040087], [100.57847772056189, 39.588723081834196], [100.84024490626192, 40.37402463893426], [100.98300430503595, 40.445404338321275], [101.36377927766195, 40.63579182463428], [102.67261520616206, 40.54853609606761], [103.37066103469546, 40.28676891036759], [103.39676018042961, 40.23979044804611], [103.80693967752882, 39.50146735326752], [104.59224123462889, 39.41421162470085], [105.29028706316227, 39.50146735326752], [105.63930997742897, 39.588723081834196], [105.92478337819132, 41.18389978484549], [106.33735580596236, 42.03188348170106], [106.35784350871387, 42.04359074041621], [106.94814590592908, 42.380906395967756], [113.31781409129626, 41.59560483886769], [118.546171576248, 41.42502313557423], [120.4727838337635, 41.68286056743437], [121.34534111943024, 42.555417853101105], [122.30515413366365, 42.72992931023445], [123.26496714789705, 41.85737202456772], [125.65358373442439, 42.65357755341016], [126.1684653613602, 37.713865529184574], [126.20971969088667, 37.75405081363086], [126.0525007577812, 37.60090597720508]]]]}}]}