{"type": "FeatureCollection", "name": "蜀汉（教学示意边界）", "features": [{"type": "Feature", "properties": {"NAME_CH": "蜀汉", "NAME_EN": "Shu Han", "POWER": "蜀", "LEVEL": "country", "NOTE_ID": "teachany-approx", "OBJ_TYPE": "POLYGON"}, "geometry": {"type": "Polygon", "coordinates": [[[104.2, 34.4], [105.5, 33.6], [106.6, 33.1], [107.3, 33.0], [108.4, 33.4], [108.9, 33.7], [110.2, 32.6], [110.8, 31.8], [110.6, 30.4], [111.2, 29.0], [111.0, 27.8], [110.5, 26.5], [110.2, 24.8], [107.8, 23.6], [105.6, 23.2], [103.8, 23.3], [102.0, 22.6], [100.5, 21.9], [99.0, 23.8], [98.3, 25.2], [99.0, 27.2], [100.3, 29.2], [101.6, 30.8], [102.4, 32.3], [103.2, 33.5]]]}}]}