{"type": "FeatureCollection", "features": [{"type": "Feature", "geometry": {"type": "Polygon", "coordinates": [[[119.197, 34.742], [119.157, 34.741], [119.119, 34.733], [119.075, 34.733], [119.042, 34.744], [119.007, 34.74], [118.983, 34.726], [118.938, 34.727], [118.906, 34.736], [118.868, 34.767], [118.853, 34.773], [118.821, 34.768], [118.794, 34.771], [118.775, 34.768], [118.769, 34.797], [118.763, 34.791], [118.732, 34.796], [118.728, 34.779], [118.716, 34.764], [118.721, 34.75], [118.734, 34.745], [118.763, 34.744], [118.771, 34.734], [118.745, 34.71], [118.725, 34.699], [118.713, 34.698], [118.681, 34.685], [118.672, 34.696], [118.656, 34.702], [118.632, 34.693], [118.611, 34.7], [118.597, 34.716], [118.566, 34.718], [118.551, 34.71], [118.518, 34.72], [118.504, 34.73], [118.504, 34.744], [118.488, 34.767], [118.438, 34.764], [118.367, 34.75], [118.329, 34.756], [118.304, 34.747], [118.272, 34.746], [118.244, 34.752], [118.202, 34.77], [118.19, 34.783], [118.184, 34.809], [118.197, 34.851], [118.221, 34.87], [118.204, 34.897], [118.209, 34.923], [118.224, 34.935], [118.22, 34.952], [118.204, 34.966], [118.186, 34.971], [118.172, 34.992], [118.161, 34.999], [118.125, 35.003], [118.109, 34.994], [118.091, 34.965], [118.085, 34.934], [118.077, 34.923], [118.054, 34.908], [118.029, 34.902], [117.947, 34.89], [117.937, 34.883], [117.895, 34.87], [117.873, 34.874], [117.846, 34.864], [117.821, 34.846], [117.802, 34.839], [117.771, 34.846], [117.748, 34.863], [117.704, 34.907], [117.696, 34.922], [117.711, 34.945], [117.717, 34.965], [117.713, 34.974], [117.721, 34.989], [117.723, 35.008], [117.74, 35.027], [117.726, 35.033], [117.707, 35.031], [117.698, 35.037], [117.702, 35.053], [117.671, 35.066], [117.652, 35.078], [117.615, 35.04], [117.595, 35.025], [117.56, 35.021], [117.524, 35.03], [117.483, 35.03], [117.421, 35.01], [117.405, 35.001], [117.388, 35.019], [117.357, 35.061], [117.32, 35.054], [117.307, 35.071], [117.273, 35.091], [117.256, 35.114], [117.254, 35.146], [117.261, 35.157], [117.306, 35.174], [117.284, 35.195], [117.31, 35.255], [117.309, 35.28], [117.304, 35.295], [117.285, 35.3], [117.275, 35.293], [117.254, 35.291], [117.264, 35.266], [117.208, 35.264], [117.189, 35.251], [117.158, 35.239], [117.101, 35.232], [117.064, 35.232], [117.031, 35.229], [116.965, 35.191], [116.957, 35.181], [116.937, 35.173], [116.921, 35.183], [116.909, 35.179], [116.886, 35.195], [116.87, 35.191], [116.861, 35.173], [116.846, 35.172], [116.833, 35.185], [116.818, 35.186], [116.815, 35.157], [116.834, 35.107], [116.847, 35.097], [116.887, 35.086], [116.899, 35.069], [116.902, 35.05], [116.914, 35.07], [116.927, 35.079], [116.958, 35.081], [117.005, 35.074], [117.04, 35.059], [117.053, 35.049], [117.046, 34.985], [117.04, 34.97], [117.02, 34.943], [117.043, 34.933], [117.062, 34.931], [117.085, 34.942], [117.098, 34.939], [117.11, 34.91], [117.128, 34.898], [117.12, 34.865], [117.154, 34.836], [117.179, 34.826], [117.163, 34.79], [117.139, 34.759], [117.158, 34.735], [117.192, 34.705], [117.219, 34.662], [117.23, 34.649], [117.239, 34.627], [117.263, 34.599], [117.275, 34.566], [117.294, 34.555], [117.313, 34.556], [117.347, 34.575], [117.362, 34.591], [117.402, 34.574], [117.42, 34.572], [117.469, 34.573], [117.531, 34.58], [117.567, 34.594], [117.59, 34.587], [117.609, 34.571], [117.635, 34.559], [117.68, 34.544], [117.711, 34.544], [117.738, 34.537], [117.772, 34.522], [117.796, 34.522], [117.827, 34.536], [117.855, 34.542], [117.888, 34.542], [117.916, 34.529], [117.942, 34.522], [117.975, 34.526], [118.009, 34.536], [118.032, 34.547], [118.092, 34.566], [118.111, 34.565], [118.137, 34.553], [118.17, 34.549], [118.167, 34.515], [118.141, 34.51], [118.129, 34.496], [118.132, 34.486], [118.173, 34.456], [118.175, 34.442], [118.198, 34.427], [118.206, 34.42], [118.236, 34.41], [118.261, 34.409], [118.279, 34.423], [118.295, 34.429], [118.368, 34.422], [118.4, 34.438], [118.399, 34.425], [118.385, 34.382], [118.375, 34.369], [118.372, 34.349], [118.355, 34.329], [118.363, 34.296], [118.377, 34.282], [118.367, 34.272], [118.365, 34.255], [118.373, 34.25], [118.452, 34.238], [118.468, 34.233], [118.499, 34.208], [118.585, 34.156], [118.613, 34.147], [118.643, 34.152], [118.686, 34.142], [118.71, 34.14], [118.744, 34.143], [118.776, 34.152], [118.81, 34.157], [118.904, 34.163], [118.992, 34.175], [119.022, 34.181], [119.083, 34.183], [119.112, 34.188], [119.133, 34.197], [119.171, 34.205], [119.181, 34.202], [119.233, 34.206], [119.28, 34.221], [119.308, 34.226], [119.339, 34.227], [119.372, 34.234], [119.392, 34.23], [119.424, 34.243], [119.447, 34.241], [119.468, 34.244], [119.477, 34.257], [119.506, 34.276], [119.549, 34.3], [119.536, 34.336], [119.476, 34.409], [119.442, 34.424], [119.421, 34.442], [119.37, 34.497], [119.305, 34.577], [119.296, 34.593], [119.282, 34.635], [119.271, 34.646], [119.224, 34.678], [119.211, 34.693], [119.2, 34.723], [119.197, 34.742]]]}, "properties": {"NAME_PY": "Donghai Jun", "NAME_CH": "东海郡", "NAME_FT": "東海郡", "X_COOR": 0, "Y_COOR": 0, "PERS_LOC": "", "TYPE_PY": "Jun", "TYPE_CH": "郡", "LEV_RANK": "3", "BEG_YR": 220, "BEG_RULE": "4", "END_YR": 224, "END_RULE": "4", "NOTE_ID": 91295, "OBJ_TYPE": "POLYGON", "SYS_ID": 91295, "GEO_SRC": "FROM_FD", "COMPILER": "王文楚", "GECOMPLR": "满志敏", "CHECKER": "", "ENT_DATE": "2005/01/25", "BEG_CHG_TY": "辖区缩小", "END_CHG_TY": "辖区扩大", "POWER": "魏"}}, {"type": "Feature", "geometry": {"type": "Polygon", "coordinates": [[[119.197, 34.742], [119.196, 34.752], [119.214, 34.779], [119.214, 34.797], [119.179, 34.849], [119.18, 34.893], [119.19, 34.896], [119.203, 34.925], [119.199, 34.989], [119.219, 35.056], [119.233, 35.067], [119.284, 35.089], [119.294, 35.097], [119.286, 35.115], [119.256, 35.126], [119.233, 35.125], [119.213, 35.112], [119.192, 35.119], [119.14, 35.103], [119.119, 35.067], [119.107, 35.058], [119.072, 35.061], [119.057, 35.057], [119.011, 35.059], [118.983, 35.05], [118.934, 35.046], [118.921, 35.062], [118.909, 35.063], [118.903, 35.05], [118.872, 35.043], [118.856, 35.034], [118.852, 35.024], [118.857, 35], [118.854, 34.982], [118.859, 34.952], [118.818, 34.906], [118.801, 34.865], [118.785, 34.847], [118.763, 34.85], [118.768, 34.835], [118.769, 34.797], [118.763, 34.791], [118.732, 34.796], [118.728, 34.779], [118.716, 34.764], [118.721, 34.75], [118.734, 34.745], [118.763, 34.744], [118.771, 34.734], [118.745, 34.71], [118.725, 34.699], [118.713, 34.698], [118.681, 34.685], [118.672, 34.696], [118.656, 34.702], [118.632, 34.693], [118.611, 34.7], [118.597, 34.716], [118.566, 34.718], [118.551, 34.71], [118.518, 34.72], [118.504, 34.73], [118.504, 34.744], [118.488, 34.767], [118.438, 34.764], [118.367, 34.75], [118.329, 34.756], [118.304, 34.747], [118.272, 34.746], [118.244, 34.752], [118.202, 34.77], [118.19, 34.783], [118.184, 34.809], [118.197, 34.851], [118.221, 34.87], [118.204, 34.897], [118.209, 34.923], [118.224, 34.935], [118.22, 34.952], [118.204, 34.966], [118.186, 34.971], [118.172, 34.992], [118.161, 34.999], [118.125, 35.003], [118.109, 34.994], [118.091, 34.965], [118.085, 34.934], [118.077, 34.923], [118.054, 34.908], [118.029, 34.902], [117.947, 34.89], [117.937, 34.883], [117.895, 34.87], [117.873, 34.874], [117.846, 34.864], [117.821, 34.846], [117.802, 34.839], [117.771, 34.846], [117.748, 34.863], [117.704, 34.907], [117.696, 34.922], [117.711, 34.945], [117.717, 34.965], [117.713, 34.974], [117.721, 34.989], [117.723, 35.008], [117.74, 35.027], [117.726, 35.033], [117.707, 35.031], [117.698, 35.037], [117.702, 35.053], [117.671, 35.066], [117.652, 35.078], [117.615, 35.04], [117.595, 35.025], [117.56, 35.021], [117.524, 35.03], [117.483, 35.03], [117.421, 35.01], [117.405, 35.001], [117.388, 35.019], [117.357, 35.061], [117.32, 35.054], [117.307, 35.071], [117.273, 35.091], [117.256, 35.114], [117.254, 35.146], [117.261, 35.157], [117.306, 35.174], [117.284, 35.195], [117.31, 35.255], [117.309, 35.28], [117.304, 35.295], [117.285, 35.3], [117.275, 35.293], [117.254, 35.291], [117.264, 35.266], [117.208, 35.264], [117.189, 35.251], [117.158, 35.239], [117.101, 35.232], [117.064, 35.232], [117.031, 35.229], [116.965, 35.191], [116.957, 35.181], [116.937, 35.173], [116.921, 35.183], [116.909, 35.179], [116.886, 35.195], [116.87, 35.191], [116.861, 35.173], [116.846, 35.172], [116.833, 35.185], [116.818, 35.186], [116.815, 35.157], [116.834, 35.107], [116.847, 35.097], [116.887, 35.086], [116.899, 35.069], [116.902, 35.05], [116.914, 35.07], [116.927, 35.079], [116.958, 35.081], [117.005, 35.074], [117.04, 35.059], [117.053, 35.049], [117.046, 34.985], [117.04, 34.97], [117.02, 34.943], [117.043, 34.933], [117.062, 34.931], [117.085, 34.942], [117.098, 34.939], [117.11, 34.91], [117.128, 34.898], [117.12, 34.865], [117.154, 34.836], [117.179, 34.826], [117.163, 34.79], [117.139, 34.759], [117.158, 34.735], [117.192, 34.705], [117.219, 34.662], [117.23, 34.649], [117.239, 34.627], [117.263, 34.599], [117.275, 34.566], [117.294, 34.555], [117.313, 34.556], [117.347, 34.575], [117.362, 34.591], [117.402, 34.574], [117.42, 34.572], [117.469, 34.573], [117.531, 34.58], [117.567, 34.594], [117.59, 34.587], [117.609, 34.571], [117.635, 34.559], [117.68, 34.544], [117.711, 34.544], [117.738, 34.537], [117.772, 34.522], [117.796, 34.522], [117.827, 34.536], [117.855, 34.542], [117.888, 34.542], [117.916, 34.529], [117.942, 34.522], [117.975, 34.526], [118.009, 34.536], [118.032, 34.547], [118.092, 34.566], [118.111, 34.565], [118.137, 34.553], [118.17, 34.549], [118.167, 34.515], [118.141, 34.51], [118.129, 34.496], [118.132, 34.486], [118.173, 34.456], [118.175, 34.442], [118.198, 34.427], [118.206, 34.42], [118.236, 34.41], [118.261, 34.409], [118.279, 34.423], [118.295, 34.429], [118.368, 34.422], [118.4, 34.438], [118.399, 34.425], [118.385, 34.382], [118.375, 34.369], [118.372, 34.349], [118.355, 34.329], [118.363, 34.296], [118.377, 34.282], [118.367, 34.272], [118.365, 34.255], [118.373, 34.25], [118.452, 34.238], [118.468, 34.233], [118.499, 34.208], [118.585, 34.156], [118.613, 34.147], [118.643, 34.152], [118.686, 34.142], [118.71, 34.14], [118.744, 34.143], [118.776, 34.152], [118.81, 34.157], [118.904, 34.163], [118.992, 34.175], [119.022, 34.181], [119.083, 34.183], [119.112, 34.188], [119.133, 34.197], [119.171, 34.205], [119.181, 34.202], [119.233, 34.206], [119.28, 34.221], [119.308, 34.226], [119.339, 34.227], [119.372, 34.234], [119.392, 34.23], [119.424, 34.243], [119.447, 34.241], [119.468, 34.244], [119.477, 34.257], [119.506, 34.276], [119.549, 34.3], [119.536, 34.336], [119.476, 34.409], [119.442, 34.424], [119.421, 34.442], [119.37, 34.497], [119.305, 34.577], [119.296, 34.593], [119.282, 34.635], [119.271, 34.646], [119.224, 34.678], [119.211, 34.693], [119.2, 34.723], [119.197, 34.742]]]}, "properties": {"NAME_PY": "Donghai Jun", "NAME_CH": "东海郡", "NAME_FT": "東海郡", "X_COOR": 0, "Y_COOR": 0, "PERS_LOC": "", "TYPE_PY": "Jun", "TYPE_CH": "郡", "LEV_RANK": "3", "BEG_YR": 225, "BEG_RULE": "4", "END_YR": 231, "END_RULE": "4", "NOTE_ID": 91292, "OBJ_TYPE": "POLYGON", "SYS_ID": 91292, "GEO_SRC": "FROM_FD", "COMPILER": "王文楚", "GECOMPLR": "满志敏", "CHECKER": "", "ENT_DATE": "2005/01/25", "BEG_CHG_TY": "辖区扩大", "END_CHG_TY": "更名", "POWER": "魏"}}, {"type": "Feature", "geometry": {"type": "Polygon", "coordinates": [[[119.197, 34.742], [119.196, 34.752], [119.214, 34.779], [119.214, 34.797], [119.179, 34.849], [119.18, 34.893], [119.19, 34.896], [119.203, 34.925], [119.199, 34.989], [119.219, 35.056], [119.233, 35.067], [119.284, 35.089], [119.294, 35.097], [119.286, 35.115], [119.256, 35.126], [119.233, 35.125], [119.213, 35.112], [119.192, 35.119], [119.14, 35.103], [119.119, 35.067], [119.107, 35.058], [119.072, 35.061], [119.057, 35.057], [119.011, 35.059], [118.983, 35.05], [118.934, 35.046], [118.921, 35.062], [118.909, 35.063], [118.903, 35.05], [118.872, 35.043], [118.856, 35.034], [118.852, 35.024], [118.857, 35], [118.854, 34.982], [118.859, 34.952], [118.818, 34.906], [118.801, 34.865], [118.785, 34.847], [118.763, 34.85], [118.768, 34.835], [118.769, 34.797], [118.763, 34.791], [118.732, 34.796], [118.728, 34.779], [118.716, 34.764], [118.721, 34.75], [118.734, 34.745], [118.763, 34.744], [118.771, 34.734], [118.745, 34.71], [118.725, 34.699], [118.713, 34.698], [118.681, 34.685], [118.672, 34.696], [118.656, 34.702], [118.632, 34.693], [118.611, 34.7], [118.597, 34.716], [118.566, 34.718], [118.551, 34.71], [118.518, 34.72], [118.504, 34.73], [118.504, 34.744], [118.488, 34.767], [118.438, 34.764], [118.367, 34.75], [118.329, 34.756], [118.304, 34.747], [118.272, 34.746], [118.244, 34.752], [118.202, 34.77], [118.19, 34.783], [118.184, 34.809], [118.197, 34.851], [118.221, 34.87], [118.204, 34.897], [118.209, 34.923], [118.224, 34.935], [118.22, 34.952], [118.204, 34.966], [118.186, 34.971], [118.172, 34.992], [118.161, 34.999], [118.125, 35.003], [118.109, 34.994], [118.091, 34.965], [118.085, 34.934], [118.077, 34.923], [118.054, 34.908], [118.029, 34.902], [117.947, 34.89], [117.937, 34.883], [117.895, 34.87], [117.873, 34.874], [117.846, 34.864], [117.821, 34.846], [117.802, 34.839], [117.771, 34.846], [117.748, 34.863], [117.704, 34.907], [117.696, 34.922], [117.711, 34.945], [117.717, 34.965], [117.713, 34.974], [117.721, 34.989], [117.723, 35.008], [117.74, 35.027], [117.726, 35.033], [117.707, 35.031], [117.698, 35.037], [117.702, 35.053], [117.671, 35.066], [117.652, 35.078], [117.615, 35.04], [117.595, 35.025], [117.56, 35.021], [117.524, 35.03], [117.483, 35.03], [117.421, 35.01], [117.405, 35.001], [117.388, 35.019], [117.357, 35.061], [117.32, 35.054], [117.307, 35.071], [117.273, 35.091], [117.256, 35.114], [117.254, 35.146], [117.261, 35.157], [117.306, 35.174], [117.284, 35.195], [117.31, 35.255], [117.309, 35.28], [117.304, 35.295], [117.285, 35.3], [117.275, 35.293], [117.254, 35.291], [117.264, 35.266], [117.208, 35.264], [117.189, 35.251], [117.158, 35.239], [117.101, 35.232], [117.064, 35.232], [117.031, 35.229], [116.965, 35.191], [116.957, 35.181], [116.937, 35.173], [116.921, 35.183], [116.909, 35.179], [116.886, 35.195], [116.87, 35.191], [116.861, 35.173], [116.846, 35.172], [116.833, 35.185], [116.818, 35.186], [116.815, 35.157], [116.834, 35.107], [116.847, 35.097], [116.887, 35.086], [116.899, 35.069], [116.902, 35.05], [116.914, 35.07], [116.927, 35.079], [116.958, 35.081], [117.005, 35.074], [117.04, 35.059], [117.053, 35.049], [117.046, 34.985], [117.04, 34.97], [117.02, 34.943], [117.043, 34.933], [117.062, 34.931], [117.085, 34.942], [117.098, 34.939], [117.11, 34.91], [117.128, 34.898], [117.12, 34.865], [117.154, 34.836], [117.179, 34.826], [117.163, 34.79], [117.139, 34.759], [117.158, 34.735], [117.192, 34.705], [117.219, 34.662], [117.23, 34.649], [117.239, 34.627], [117.263, 34.599], [117.275, 34.566], [117.294, 34.555], [117.313, 34.556], [117.347, 34.575], [117.362, 34.591], [117.402, 34.574], [117.42, 34.572], [117.469, 34.573], [117.531, 34.58], [117.567, 34.594], [117.59, 34.587], [117.609, 34.571], [117.635, 34.559], [117.68, 34.544], [117.711, 34.544], [117.738, 34.537], [117.772, 34.522], [117.796, 34.522], [117.827, 34.536], [117.855, 34.542], [117.888, 34.542], [117.916, 34.529], [117.942, 34.522], [117.975, 34.526], [118.009, 34.536], [118.032, 34.547], [118.092, 34.566], [118.111, 34.565], [118.137, 34.553], [118.17, 34.549], [118.167, 34.515], [118.141, 34.51], [118.129, 34.496], [118.132, 34.486], [118.173, 34.456], [118.175, 34.442], [118.198, 34.427], [118.206, 34.42], [118.236, 34.41], [118.261, 34.409], [118.279, 34.423], [118.295, 34.429], [118.368, 34.422], [118.4, 34.438], [118.399, 34.425], [118.385, 34.382], [118.375, 34.369], [118.372, 34.349], [118.355, 34.329], [118.363, 34.296], [118.377, 34.282], [118.367, 34.272], [118.365, 34.255], [118.373, 34.25], [118.452, 34.238], [118.468, 34.233], [118.499, 34.208], [118.585, 34.156], [118.613, 34.147], [118.643, 34.152], [118.686, 34.142], [118.71, 34.14], [118.744, 34.143], [118.776, 34.152], [118.81, 34.157], [118.904, 34.163], [118.992, 34.175], [119.022, 34.181], [119.083, 34.183], [119.112, 34.188], [119.133, 34.197], [119.171, 34.205], [119.181, 34.202], [119.233, 34.206], [119.28, 34.221], [119.308, 34.226], [119.339, 34.227], [119.372, 34.234], [119.392, 34.23], [119.424, 34.243], [119.447, 34.241], [119.468, 34.244], [119.477, 34.257], [119.506, 34.276], [119.549, 34.3], [119.536, 34.336], [119.476, 34.409], [119.442, 34.424], [119.421, 34.442], [119.37, 34.497], [119.305, 34.577], [119.296, 34.593], [119.282, 34.635], [119.271, 34.646], [119.224, 34.678], [119.211, 34.693], [119.2, 34.723], [119.197, 34.742]]]}, "properties": {"NAME_PY": "Donghai Guo", "NAME_CH": "东海国", "NAME_FT": "東海國", "X_COOR": 0, "Y_COOR": 0, "PERS_LOC": "", "TYPE_PY": "Houguo", "TYPE_CH": "侯国", "LEV_RANK": "3", "BEG_YR": 232, "BEG_RULE": "4", "END_YR": 272, "END_RULE": "4", "NOTE_ID": 91294, "OBJ_TYPE": "POLYGON", "SYS_ID": 91294, "GEO_SRC": "FROM_FD", "COMPILER": "王文楚", "GECOMPLR": "满志敏", "CHECKER": "", "ENT_DATE": "2005/01/25", "BEG_CHG_TY": "更名", "END_CHG_TY": "更名", "POWER": "魏"}}, {"type": "Feature", "geometry": {"type": "Polygon", "coordinates": [[[119.197, 34.742], [119.196, 34.752], [119.214, 34.779], [119.214, 34.797], [119.179, 34.849], [119.18, 34.893], [119.19, 34.896], [119.203, 34.925], [119.199, 34.989], [119.219, 35.056], [119.233, 35.067], [119.284, 35.089], [119.294, 35.097], [119.286, 35.115], [119.256, 35.126], [119.233, 35.125], [119.213, 35.112], [119.192, 35.119], [119.14, 35.103], [119.119, 35.067], [119.107, 35.058], [119.072, 35.061], [119.057, 35.057], [119.011, 35.059], [118.983, 35.05], [118.934, 35.046], [118.921, 35.062], [118.909, 35.063], [118.903, 35.05], [118.872, 35.043], [118.856, 35.034], [118.852, 35.024], [118.857, 35], [118.854, 34.982], [118.859, 34.952], [118.818, 34.906], [118.801, 34.865], [118.785, 34.847], [118.763, 34.85], [118.768, 34.835], [118.769, 34.797], [118.763, 34.791], [118.732, 34.796], [118.728, 34.779], [118.716, 34.764], [118.721, 34.75], [118.734, 34.745], [118.763, 34.744], [118.771, 34.734], [118.745, 34.71], [118.725, 34.699], [118.713, 34.698], [118.681, 34.685], [118.672, 34.696], [118.656, 34.702], [118.632, 34.693], [118.611, 34.7], [118.597, 34.716], [118.566, 34.718], [118.551, 34.71], [118.518, 34.72], [118.504, 34.73], [118.504, 34.744], [118.488, 34.767], [118.438, 34.764], [118.367, 34.75], [118.329, 34.756], [118.304, 34.747], [118.272, 34.746], [118.244, 34.752], [118.202, 34.77], [118.19, 34.783], [118.184, 34.809], [118.197, 34.851], [118.221, 34.87], [118.204, 34.897], [118.209, 34.923], [118.224, 34.935], [118.22, 34.952], [118.204, 34.966], [118.186, 34.971], [118.172, 34.992], [118.161, 34.999], [118.125, 35.003], [118.109, 34.994], [118.091, 34.965], [118.085, 34.934], [118.077, 34.923], [118.054, 34.908], [118.029, 34.902], [117.947, 34.89], [117.937, 34.883], [117.895, 34.87], [117.873, 34.874], [117.846, 34.864], [117.821, 34.846], [117.802, 34.839], [117.771, 34.846], [117.748, 34.863], [117.704, 34.907], [117.696, 34.922], [117.711, 34.945], [117.717, 34.965], [117.713, 34.974], [117.721, 34.989], [117.723, 35.008], [117.74, 35.027], [117.726, 35.033], [117.707, 35.031], [117.698, 35.037], [117.702, 35.053], [117.671, 35.066], [117.652, 35.078], [117.615, 35.04], [117.595, 35.025], [117.56, 35.021], [117.524, 35.03], [117.483, 35.03], [117.421, 35.01], [117.405, 35.001], [117.388, 35.019], [117.357, 35.061], [117.32, 35.054], [117.307, 35.071], [117.273, 35.091], [117.256, 35.114], [117.254, 35.146], [117.261, 35.157], [117.306, 35.174], [117.284, 35.195], [117.31, 35.255], [117.309, 35.28], [117.304, 35.295], [117.285, 35.3], [117.275, 35.293], [117.254, 35.291], [117.264, 35.266], [117.208, 35.264], [117.189, 35.251], [117.158, 35.239], [117.101, 35.232], [117.064, 35.232], [117.031, 35.229], [116.965, 35.191], [116.957, 35.181], [116.937, 35.173], [116.921, 35.183], [116.909, 35.179], [116.886, 35.195], [116.87, 35.191], [116.861, 35.173], [116.846, 35.172], [116.833, 35.185], [116.818, 35.186], [116.815, 35.157], [116.834, 35.107], [116.847, 35.097], [116.887, 35.086], [116.899, 35.069], [116.902, 35.05], [116.914, 35.07], [116.927, 35.079], [116.958, 35.081], [117.005, 35.074], [117.04, 35.059], [117.053, 35.049], [117.046, 34.985], [117.04, 34.97], [117.02, 34.943], [117.043, 34.933], [117.062, 34.931], [117.085, 34.942], [117.098, 34.939], [117.11, 34.91], [117.128, 34.898], [117.12, 34.865], [117.154, 34.836], [117.179, 34.826], [117.163, 34.79], [117.139, 34.759], [117.158, 34.735], [117.192, 34.705], [117.219, 34.662], [117.23, 34.649], [117.239, 34.627], [117.263, 34.599], [117.275, 34.566], [117.294, 34.555], [117.313, 34.556], [117.347, 34.575], [117.362, 34.591], [117.402, 34.574], [117.42, 34.572], [117.469, 34.573], [117.531, 34.58], [117.567, 34.594], [117.59, 34.587], [117.609, 34.571], [117.635, 34.559], [117.68, 34.544], [117.711, 34.544], [117.738, 34.537], [117.772, 34.522], [117.796, 34.522], [117.827, 34.536], [117.855, 34.542], [117.888, 34.542], [117.916, 34.529], [117.942, 34.522], [117.975, 34.526], [118.009, 34.536], [118.032, 34.547], [118.092, 34.566], [118.111, 34.565], [118.137, 34.553], [118.17, 34.549], [118.167, 34.515], [118.141, 34.51], [118.129, 34.496], [118.132, 34.486], [118.173, 34.456], [118.175, 34.442], [118.198, 34.427], [118.206, 34.42], [118.236, 34.41], [118.261, 34.409], [118.279, 34.423], [118.295, 34.429], [118.368, 34.422], [118.4, 34.438], [118.399, 34.425], [118.385, 34.382], [118.375, 34.369], [118.372, 34.349], [118.355, 34.329], [118.363, 34.296], [118.377, 34.282], [118.367, 34.272], [118.365, 34.255], [118.373, 34.25], [118.452, 34.238], [118.468, 34.233], [118.499, 34.208], [118.585, 34.156], [118.613, 34.147], [118.643, 34.152], [118.686, 34.142], [118.71, 34.14], [118.744, 34.143], [118.776, 34.152], [118.81, 34.157], [118.904, 34.163], [118.992, 34.175], [119.022, 34.181], [119.083, 34.183], [119.112, 34.188], [119.133, 34.197], [119.171, 34.205], [119.181, 34.202], [119.233, 34.206], [119.28, 34.221], [119.308, 34.226], [119.339, 34.227], [119.372, 34.234], [119.392, 34.23], [119.424, 34.243], [119.447, 34.241], [119.468, 34.244], [119.477, 34.257], [119.506, 34.276], [119.549, 34.3], [119.536, 34.336], [119.476, 34.409], [119.442, 34.424], [119.421, 34.442], [119.37, 34.497], [119.305, 34.577], [119.296, 34.593], [119.282, 34.635], [119.271, 34.646], [119.224, 34.678], [119.211, 34.693], [119.2, 34.723], [119.197, 34.742]]]}, "properties": {"NAME_PY": "Donghai Jun", "NAME_CH": "东海郡", "NAME_FT": "東海郡", "X_COOR": 0, "Y_COOR": 0, "PERS_LOC": "", "TYPE_PY": "Jun", "TYPE_CH": "郡", "LEV_RANK": "3", "BEG_YR": 273, "BEG_RULE": "4", "END_YR": 280, "END_RULE": "4", "NOTE_ID": 91499, "OBJ_TYPE": "POLYGON", "SYS_ID": 91499, "GEO_SRC": "FROM_FD", "COMPILER": "王文楚", "GECOMPLR": "满志敏", "CHECKER": "", "ENT_DATE": "2005/01/25", "BEG_CHG_TY": "更名", "END_CHG_TY": "更名", "POWER": "魏"}}, {"type": "Feature", "geometry": {"type": "Polygon", "coordinates": [[[119.197, 34.742], [119.196, 34.752], [119.214, 34.779], [119.214, 34.797], [119.179, 34.849], [119.18, 34.893], [119.19, 34.896], [119.203, 34.925], [119.199, 34.989], [119.219, 35.056], [119.233, 35.067], [119.284, 35.089], [119.294, 35.097], [119.286, 35.115], [119.256, 35.126], [119.233, 35.125], [119.213, 35.112], [119.192, 35.119], [119.14, 35.103], [119.119, 35.067], [119.107, 35.058], [119.072, 35.061], [119.057, 35.057], [119.011, 35.059], [118.983, 35.05], [118.934, 35.046], [118.921, 35.062], [118.909, 35.063], [118.903, 35.05], [118.872, 35.043], [118.856, 35.034], [118.852, 35.024], [118.857, 35], [118.854, 34.982], [118.859, 34.952], [118.818, 34.906], [118.801, 34.865], [118.785, 34.847], [118.763, 34.85], [118.768, 34.835], [118.769, 34.797], [118.775, 34.768], [118.794, 34.771], [118.821, 34.768], [118.853, 34.773], [118.868, 34.767], [118.906, 34.736], [118.938, 34.727], [118.983, 34.726], [119.007, 34.74], [119.042, 34.744], [119.075, 34.733], [119.119, 34.733], [119.157, 34.741], [119.197, 34.742]]]}, "properties": {"NAME_PY": "Licheng Jun", "NAME_CH": "利城郡", "NAME_FT": "利城郡", "X_COOR": 0, "Y_COOR": 0, "PERS_LOC": "", "TYPE_PY": "Jun", "TYPE_CH": "郡", "LEV_RANK": "3", "BEG_YR": 198, "BEG_RULE": "4", "END_YR": 224, "END_RULE": "4", "NOTE_ID": 91279, "OBJ_TYPE": "POLYGON", "SYS_ID": 91279, "GEO_SRC": "FROM_FD", "COMPILER": "王文楚", "GECOMPLR": "满志敏", "CHECKER": "", "ENT_DATE": "2005/01/25", "BEG_CHG_TY": "新建", "END_CHG_TY": "撤销", "POWER": "魏"}}, {"type": "Feature", "geometry": {"type": "Polygon", "coordinates": [[[117.397, 33.685], [117.398, 33.731], [117.38, 33.749], [117.375, 33.76], [117.376, 33.792], [117.402, 33.8], [117.401, 33.817], [117.424, 33.824], [117.41, 33.848], [117.409, 33.866], [117.424, 33.89], [117.423, 33.909], [117.399, 33.935], [117.405, 33.975], [117.4, 34.006], [117.393, 34.023], [117.405, 34.028], [117.43, 34.029], [117.471, 34.049], [117.495, 34.053], [117.5, 34.063], [117.516, 34.059], [117.54, 34.037], [117.557, 34.034], [117.586, 34.041], [117.598, 34.054], [117.604, 34.085], [117.621, 34.123], [117.63, 34.175], [117.644, 34.234], [117.653, 34.237], [117.686, 34.228], [117.761, 34.219], [117.777, 34.213], [117.787, 34.22], [117.795, 34.241], [117.803, 34.281], [117.808, 34.326], [117.822, 34.37], [117.835, 34.401], [117.861, 34.441], [117.902, 34.484], [117.896, 34.5], [117.87, 34.509], [117.796, 34.522], [117.772, 34.522], [117.738, 34.537], [117.711, 34.544], [117.68, 34.544], [117.635, 34.559], [117.609, 34.571], [117.59, 34.587], [117.567, 34.594], [117.531, 34.58], [117.469, 34.573], [117.42, 34.572], [117.402, 34.574], [117.362, 34.591], [117.347, 34.575], [117.313, 34.556], [117.294, 34.555], [117.275, 34.566], [117.263, 34.599], [117.239, 34.627], [117.23, 34.649], [117.219, 34.662], [117.192, 34.705], [117.158, 34.735], [117.139, 34.759], [117.163, 34.79], [117.179, 34.826], [117.154, 34.836], [117.12, 34.865], [117.128, 34.898], [117.11, 34.91], [117.098, 34.939], [117.085, 34.942], [117.062, 34.931], [117.043, 34.933], [117.02, 34.943], [117.008, 34.939], [116.988, 34.918], [116.978, 34.892], [116.962, 34.876], [116.97, 34.87], [116.976, 34.839], [116.964, 34.799], [116.969, 34.766], [116.966, 34.733], [116.967, 34.705], [116.967, 34.678], [116.962, 34.63], [116.953, 34.597], [116.937, 34.578], [116.933, 34.559], [116.874, 34.558], [116.86, 34.555], [116.805, 34.556], [116.78, 34.574], [116.763, 34.596], [116.765, 34.611], [116.793, 34.625], [116.791, 34.634], [116.76, 34.64], [116.757, 34.657], [116.736, 34.67], [116.727, 34.682], [116.704, 34.688], [116.694, 34.704], [116.689, 34.729], [116.714, 34.753], [116.7, 34.782], [116.68, 34.797], [116.684, 34.812], [116.701, 34.82], [116.718, 34.856], [116.719, 34.89], [116.74, 34.902], [116.725, 34.915], [116.726, 34.927], [116.698, 34.935], [116.618, 34.938], [116.599, 34.923], [116.546, 34.911], [116.518, 34.909], [116.46, 34.898], [116.443, 34.901], [116.433, 34.88], [116.413, 34.866], [116.403, 34.839], [116.4, 34.813], [116.399, 34.764], [116.393, 34.754], [116.376, 34.754], [116.36, 34.744], [116.357, 34.724], [116.382, 34.715], [116.388, 34.707], [116.373, 34.686], [116.374, 34.673], [116.359, 34.653], [116.369, 34.641], [116.377, 34.639], [116.404, 34.652], [116.424, 34.654], [116.426, 34.636], [116.435, 34.625], [116.472, 34.616], [116.473, 34.605], [116.486, 34.59], [116.485, 34.574], [116.521, 34.548], [116.538, 34.547], [116.587, 34.511], [116.562, 34.501], [116.57, 34.49], [116.617, 34.49], [116.65, 34.479], [116.673, 34.477], [116.718, 34.478], [116.735, 34.471], [116.77, 34.444], [116.785, 34.421], [116.803, 34.41], [116.823, 34.39], [116.862, 34.393], [116.879, 34.404], [116.904, 34.41], [116.941, 34.397], [116.959, 34.391], [116.958, 34.366], [116.973, 34.363], [116.971, 34.338], [116.959, 34.321], [116.972, 34.312], [116.965, 34.282], [117.028, 34.245], [117.046, 34.244], [117.05, 34.234], [117.028, 34.2], [117.019, 34.179], [117.011, 34.178], [116.974, 34.152], [116.975, 34.125], [116.969, 34.091], [116.966, 34.083], [116.947, 34.053], [116.961, 34.017], [116.955, 33.988], [116.958, 33.97], [116.976, 33.957], [116.992, 33.937], [116.98, 33.903], [116.95, 33.887], [116.946, 33.873], [116.946, 33.845], [116.94, 33.824], [116.938, 33.785], [116.924, 33.772], [116.921, 33.76], [116.926, 33.72], [116.919, 33.709], [116.919, 33.691], [116.931, 33.689], [116.952, 33.696], [116.979, 33.698], [116.997, 33.678], [117.037, 33.669], [117.065, 33.673], [117.138, 33.692], [117.148, 33.69], [117.184, 33.672], [117.208, 33.667], [117.235, 33.672], [117.266, 33.683], [117.321, 33.692], [117.354, 33.688], [117.379, 33.681], [117.397, 33.685]]]}, "properties": {"NAME_PY": "Pengcheng Guo", "NAME_CH": "彭城国", "NAME_FT": "彭城國", "X_COOR": 0, "Y_COOR": 0, "PERS_LOC": "", "TYPE_PY": "Houguo", "TYPE_CH": "侯国", "LEV_RANK": "3", "BEG_YR": 220, "BEG_RULE": "4", "END_YR": 237, "END_RULE": "4", "NOTE_ID": 91233, "OBJ_TYPE": "POLYGON", "SYS_ID": 91233, "GEO_SRC": "FROM_FD", "COMPILER": "王文楚", "GECOMPLR": "满志敏", "CHECKER": "", "ENT_DATE": "2005/01/25", "BEG_CHG_TY": "辖区扩大", "END_CHG_TY": "辖区缩小", "POWER": "魏"}}, {"type": "Feature", "geometry": {"type": "Polygon", "coordinates": [[[116.967, 34.705], [116.967, 34.678], [116.962, 34.63], [116.953, 34.597], [116.937, 34.578], [116.933, 34.559], [116.936, 34.528], [116.943, 34.498], [116.944, 34.443], [116.941, 34.397], [116.959, 34.391], [116.958, 34.366], [116.973, 34.363], [116.971, 34.338], [116.959, 34.321], [116.972, 34.312], [116.965, 34.282], [117.028, 34.245], [117.046, 34.244], [117.05, 34.234], [117.028, 34.2], [117.019, 34.179], [117.011, 34.178], [116.974, 34.152], [116.975, 34.125], [116.969, 34.091], [116.966, 34.083], [116.947, 34.053], [116.961, 34.017], [116.955, 33.988], [116.958, 33.97], [116.976, 33.957], [116.992, 33.937], [116.98, 33.903], [116.95, 33.887], [116.946, 33.873], [116.946, 33.845], [116.94, 33.824], [116.938, 33.785], [116.924, 33.772], [116.921, 33.76], [116.926, 33.72], [116.919, 33.709], [116.919, 33.691], [116.931, 33.689], [116.952, 33.696], [116.979, 33.698], [116.997, 33.678], [117.037, 33.669], [117.065, 33.673], [117.138, 33.692], [117.148, 33.69], [117.184, 33.672], [117.208, 33.667], [117.235, 33.672], [117.266, 33.683], [117.321, 33.692], [117.354, 33.688], [117.379, 33.681], [117.397, 33.685], [117.398, 33.731], [117.38, 33.749], [117.375, 33.76], [117.376, 33.792], [117.402, 33.8], [117.401, 33.817], [117.424, 33.824], [117.41, 33.848], [117.409, 33.866], [117.424, 33.89], [117.423, 33.909], [117.399, 33.935], [117.405, 33.975], [117.4, 34.006], [117.393, 34.023], [117.405, 34.028], [117.43, 34.029], [117.471, 34.049], [117.495, 34.053], [117.5, 34.063], [117.516, 34.059], [117.54, 34.037], [117.557, 34.034], [117.586, 34.041], [117.598, 34.054], [117.604, 34.085], [117.621, 34.123], [117.63, 34.175], [117.644, 34.234], [117.653, 34.237], [117.686, 34.228], [117.761, 34.219], [117.777, 34.213], [117.787, 34.22], [117.795, 34.241], [117.803, 34.281], [117.808, 34.326], [117.822, 34.37], [117.835, 34.401], [117.861, 34.441], [117.902, 34.484], [117.896, 34.5], [117.87, 34.509], [117.796, 34.522], [117.772, 34.522], [117.738, 34.537], [117.711, 34.544], [117.68, 34.544], [117.635, 34.559], [117.609, 34.571], [117.59, 34.587], [117.567, 34.594], [117.531, 34.58], [117.469, 34.573], [117.42, 34.572], [117.402, 34.574], [117.362, 34.591], [117.347, 34.575], [117.313, 34.556], [117.294, 34.555], [117.275, 34.566], [117.263, 34.599], [117.239, 34.627], [117.23, 34.649], [117.219, 34.662], [117.192, 34.705], [117.158, 34.735], [117.139, 34.759], [117.121, 34.73], [117.073, 34.704], [117.024, 34.702], [116.998, 34.712], [116.967, 34.705]]]}, "properties": {"NAME_PY": "Pengcheng Guo", "NAME_CH": "彭城国", "NAME_FT": "彭城國", "X_COOR": 0, "Y_COOR": 0, "PERS_LOC": "", "TYPE_PY": "Houguo", "TYPE_CH": "侯国", "LEV_RANK": "3", "BEG_YR": 238, "BEG_RULE": "4", "END_YR": 264, "END_RULE": "4", "NOTE_ID": 91232, "OBJ_TYPE": "POLYGON", "SYS_ID": 91232, "GEO_SRC": "FROM_FD", "COMPILER": "王文楚", "GECOMPLR": "满志敏", "CHECKER": "", "ENT_DATE": "2005/01/25", "BEG_CHG_TY": "辖区缩小", "END_CHG_TY": "辖区缩小", "POWER": "魏"}}, {"type": "Feature", "geometry": {"type": "Polygon", "coordinates": [[[116.967, 34.705], [116.967, 34.678], [116.962, 34.63], [116.953, 34.597], [116.937, 34.578], [116.933, 34.559], [116.936, 34.528], [116.943, 34.498], [116.944, 34.443], [116.941, 34.397], [116.959, 34.391], [116.958, 34.366], [116.973, 34.363], [116.971, 34.338], [116.959, 34.321], [116.972, 34.312], [116.965, 34.282], [117.028, 34.245], [117.046, 34.244], [117.05, 34.234], [117.028, 34.2], [117.019, 34.179], [117.011, 34.178], [116.974, 34.152], [116.975, 34.125], [116.969, 34.091], [116.966, 34.083], [116.947, 34.053], [116.961, 34.017], [116.955, 33.988], [116.958, 33.97], [116.976, 33.957], [116.992, 33.937], [117.018, 33.95], [117.035, 33.985], [117.079, 33.974], [117.149, 33.972], [117.188, 33.961], [117.22, 33.956], [117.25, 33.955], [117.271, 33.948], [117.295, 33.92], [117.296, 33.897], [117.311, 33.884], [117.343, 33.883], [117.363, 33.887], [117.377, 33.897], [117.393, 33.917], [117.399, 33.935], [117.405, 33.975], [117.4, 34.006], [117.393, 34.023], [117.405, 34.028], [117.43, 34.029], [117.471, 34.049], [117.495, 34.053], [117.5, 34.063], [117.516, 34.059], [117.54, 34.037], [117.557, 34.034], [117.586, 34.041], [117.598, 34.054], [117.604, 34.085], [117.621, 34.123], [117.63, 34.175], [117.644, 34.234], [117.653, 34.237], [117.686, 34.228], [117.761, 34.219], [117.777, 34.213], [117.787, 34.22], [117.795, 34.241], [117.803, 34.281], [117.808, 34.326], [117.822, 34.37], [117.835, 34.401], [117.861, 34.441], [117.902, 34.484], [117.896, 34.5], [117.87, 34.509], [117.796, 34.522], [117.772, 34.522], [117.738, 34.537], [117.711, 34.544], [117.68, 34.544], [117.635, 34.559], [117.609, 34.571], [117.59, 34.587], [117.567, 34.594], [117.531, 34.58], [117.469, 34.573], [117.42, 34.572], [117.402, 34.574], [117.362, 34.591], [117.347, 34.575], [117.313, 34.556], [117.294, 34.555], [117.275, 34.566], [117.263, 34.599], [117.239, 34.627], [117.23, 34.649], [117.219, 34.662], [117.192, 34.705], [117.158, 34.735], [117.139, 34.759], [117.121, 34.73], [117.073, 34.704], [117.024, 34.702], [116.998, 34.712], [116.967, 34.705]]]}, "properties": {"NAME_PY": "Pengcheng Guo", "NAME_CH": "彭城国", "NAME_FT": "彭城國", "X_COOR": 0, "Y_COOR": 0, "PERS_LOC": "", "TYPE_PY": "Houguo", "TYPE_CH": "侯国", "LEV_RANK": "3", "BEG_YR": 265, "BEG_RULE": "4", "END_YR": 323, "END_RULE": "4", "NOTE_ID": 91230, "OBJ_TYPE": "POLYGON", "SYS_ID": 91230, "GEO_SRC": "FROM_FD", "COMPILER": "王文楚", "GECOMPLR": "满志敏", "CHECKER": "", "ENT_DATE": "2005/01/25", "BEG_CHG_TY": "辖区缩小", "END_CHG_TY": "暂无", "POWER": "魏"}}, {"type": "Feature", "geometry": {"type": "Polygon", "coordinates": [[[119.133, 34.197], [119.112, 34.188], [119.083, 34.183], [119.022, 34.181], [118.992, 34.175], [118.904, 34.163], [118.81, 34.157], [118.776, 34.152], [118.744, 34.143], [118.71, 34.14], [118.686, 34.142], [118.643, 34.152], [118.613, 34.147], [118.585, 34.156], [118.499, 34.208], [118.468, 34.233], [118.452, 34.238], [118.373, 34.25], [118.365, 34.255], [118.367, 34.272], [118.377, 34.282], [118.363, 34.296], [118.355, 34.329], [118.372, 34.349], [118.375, 34.369], [118.385, 34.382], [118.399, 34.425], [118.4, 34.438], [118.368, 34.422], [118.295, 34.429], [118.279, 34.423], [118.261, 34.409], [118.236, 34.41], [118.206, 34.42], [118.198, 34.427], [118.175, 34.442], [118.173, 34.456], [118.132, 34.486], [118.129, 34.496], [118.141, 34.51], [118.167, 34.515], [118.17, 34.549], [118.137, 34.553], [118.111, 34.565], [118.092, 34.566], [118.032, 34.547], [118.009, 34.536], [117.975, 34.526], [117.942, 34.522], [117.916, 34.529], [117.888, 34.542], [117.855, 34.542], [117.827, 34.536], [117.796, 34.522], [117.87, 34.509], [117.896, 34.5], [117.902, 34.484], [117.861, 34.441], [117.835, 34.401], [117.822, 34.37], [117.808, 34.326], [117.803, 34.281], [117.795, 34.241], [117.787, 34.22], [117.777, 34.213], [117.761, 34.219], [117.686, 34.228], [117.653, 34.237], [117.644, 34.234], [117.63, 34.175], [117.621, 34.123], [117.604, 34.085], [117.598, 34.054], [117.586, 34.041], [117.615, 34.037], [117.594, 34.023], [117.598, 34.015], [117.627, 33.997], [117.642, 33.979], [117.656, 33.955], [117.651, 33.923], [117.636, 33.899], [117.642, 33.874], [117.655, 33.865], [117.667, 33.839], [117.68, 33.826], [117.733, 33.792], [117.74, 33.783], [117.737, 33.764], [117.718, 33.747], [117.696, 33.743], [117.688, 33.706], [117.692, 33.604], [117.664, 33.604], [117.647, 33.595], [117.654, 33.569], [117.654, 33.551], [117.633, 33.543], [117.627, 33.517], [117.646, 33.491], [117.665, 33.486], [117.65, 33.462], [117.653, 33.439], [117.665, 33.426], [117.67, 33.41], [117.663, 33.384], [117.669, 33.379], [117.638, 33.335], [117.663, 33.33], [117.666, 33.318], [117.685, 33.307], [117.687, 33.293], [117.705, 33.285], [117.723, 33.286], [117.733, 33.277], [117.776, 33.284], [117.798, 33.28], [117.804, 33.298], [117.82, 33.301], [117.834, 33.296], [117.848, 33.304], [117.854, 33.327], [117.898, 33.333], [117.933, 33.331], [117.976, 33.332], [117.98, 33.314], [117.967, 33.283], [117.938, 33.265], [117.94, 33.246], [117.932, 33.227], [117.947, 33.224], [117.969, 33.23], [117.977, 33.226], [117.99, 33.201], [117.981, 33.184], [117.996, 33.17], [118.028, 33.159], [118.033, 33.143], [118.017, 33.137], [117.999, 33.147], [117.985, 33.148], [117.954, 33.139], [117.912, 33.153], [117.892, 33.139], [117.886, 33.121], [117.887, 33.106], [117.9, 33.076], [117.884, 33.042], [117.861, 33.014], [117.894, 32.992], [117.909, 32.99], [117.924, 32.998], [117.922, 32.965], [117.928, 32.941], [117.919, 32.914], [117.904, 32.897], [117.904, 32.878], [117.913, 32.854], [117.903, 32.84], [117.898, 32.822], [117.912, 32.786], [117.936, 32.778], [117.94, 32.765], [117.926, 32.754], [117.929, 32.741], [117.922, 32.73], [117.926, 32.716], [117.918, 32.693], [117.937, 32.676], [117.939, 32.645], [117.953, 32.636], [117.994, 32.626], [118.016, 32.615], [118.054, 32.612], [118.064, 32.608], [118.076, 32.582], [118.073, 32.552], [118.099, 32.547], [118.116, 32.549], [118.17, 32.566], [118.199, 32.587], [118.206, 32.616], [118.23, 32.637], [118.263, 32.641], [118.292, 32.634], [118.323, 32.618], [118.367, 32.62], [118.39, 32.634], [118.421, 32.659], [118.425, 32.681], [118.415, 32.698], [118.415, 32.717], [118.443, 32.741], [118.459, 32.756], [118.491, 32.774], [118.538, 32.796], [118.595, 32.82], [118.647, 32.846], [118.692, 32.863], [118.734, 32.895], [118.767, 32.924], [118.806, 32.973], [118.826, 33.003], [118.837, 33.029], [118.834, 33.048], [118.821, 33.08], [118.815, 33.161], [118.784, 33.169], [118.779, 33.18], [118.763, 33.177], [118.739, 33.162], [118.712, 33.157], [118.672, 33.164], [118.647, 33.164], [118.605, 33.152], [118.594, 33.155], [118.59, 33.17], [118.618, 33.196], [118.639, 33.205], [118.648, 33.217], [118.585, 33.252], [118.552, 33.292], [118.569, 33.334], [118.57, 33.351], [118.565, 33.39], [118.556, 33.407], [118.538, 33.429], [118.516, 33.443], [118.497, 33.465], [118.482, 33.518], [118.437, 33.56], [118.429, 33.604], [118.431, 33.634], [118.425, 33.659], [118.414, 33.682], [118.405, 33.681], [118.394, 33.661], [118.384, 33.653], [118.37, 33.654], [118.364, 33.672], [118.334, 33.686], [118.355, 33.713], [118.36, 33.752], [118.371, 33.777], [118.393, 33.779], [118.441, 33.795], [118.476, 33.827], [118.497, 33.837], [118.526, 33.843], [118.557, 33.861], [118.584, 33.86], [118.614, 33.831], [118.651, 33.817], [118.693, 33.814], [118.706, 33.821], [118.731, 33.824], [118.763, 33.814], [118.811, 33.792], [118.823, 33.773], [118.837, 33.766], [118.853, 33.763], [118.882, 33.749], [118.893, 33.749], [118.93, 33.732], [118.979, 33.704], [118.999, 33.707], [119.042, 33.707], [119.11, 33.693], [119.094, 33.745], [119.095, 33.756], [119.096, 33.76], [119.095, 33.773], [119.083, 33.783], [119.092, 33.81], [119.09, 33.824], [119.065, 33.829], [119.05, 33.837], [119.03, 33.856], [119.031, 33.869], [118.996, 33.883], [118.995, 33.903], [119.025, 33.918], [119.028, 33.936], [119.038, 33.958], [119.036, 33.973], [119.044, 34.004], [119.045, 34.025], [119.057, 34.032], [119.093, 34.027], [119.111, 34.014], [119.135, 33.985], [119.151, 33.983], [119.196, 34.003], [119.211, 34.03], [119.198, 34.058], [119.198, 34.071], [119.183, 34.091], [119.155, 34.11], [119.164, 34.118], [119.155, 34.138], [119.14, 34.137], [119.13, 34.149], [119.139, 34.162], [119.14, 34.18], [119.133, 34.197]]]}, "properties": {"NAME_PY": "Xiapi Jun", "NAME_CH": "下邳郡", "NAME_FT": "下邳郡", "X_COOR": 0, "Y_COOR": 0, "PERS_LOC": "", "TYPE_PY": "Jun", "TYPE_CH": "郡", "LEV_RANK": "3", "BEG_YR": 220, "BEG_RULE": "4", "END_YR": 279, "END_RULE": "4", "NOTE_ID": 91264, "OBJ_TYPE": "POLYGON", "SYS_ID": 91264, "GEO_SRC": "FROM_FD", "COMPILER": "王文楚", "GECOMPLR": "满志敏", "CHECKER": "", "ENT_DATE": "2005/01/25", "BEG_CHG_TY": "辖区缩小", "END_CHG_TY": "辖区缩小", "POWER": "魏"}}, {"type": "Feature", "geometry": {"type": "Polygon", "coordinates": [[[118.748, 33.376], [118.773, 33.43], [118.777, 33.457], [118.772, 33.491], [118.782, 33.512], [118.783, 33.534], [118.798, 33.557], [118.801, 33.572], [118.793, 33.648], [118.79, 33.66], [118.818, 33.673], [118.879, 33.724], [118.882, 33.749], [118.853, 33.763], [118.837, 33.766], [118.823, 33.773], [118.811, 33.792], [118.763, 33.814], [118.731, 33.824], [118.706, 33.821], [118.693, 33.814], [118.651, 33.817], [118.614, 33.831], [118.584, 33.86], [118.557, 33.861], [118.526, 33.843], [118.497, 33.837], [118.476, 33.827], [118.441, 33.795], [118.393, 33.779], [118.371, 33.777], [118.372, 33.795], [118.344, 33.799], [118.273, 33.804], [118.248, 33.811], [118.217, 33.829], [118.186, 33.855], [118.171, 33.871], [118.163, 33.887], [118.144, 33.897], [118.136, 33.931], [118.124, 33.95], [118.114, 34.005], [118.104, 34.013], [118.075, 34.017], [118.06, 34.025], [118.055, 34.043], [118.055, 34.07], [118.045, 34.096], [118.051, 34.154], [118.071, 34.194], [118.073, 34.213], [118.1, 34.228], [118.112, 34.251], [118.117, 34.27], [118.149, 34.317], [118.155, 34.345], [118.193, 34.42], [118.198, 34.427], [118.175, 34.442], [118.173, 34.456], [118.132, 34.486], [118.129, 34.496], [118.141, 34.51], [118.167, 34.515], [118.17, 34.549], [118.137, 34.553], [118.111, 34.565], [118.092, 34.566], [118.032, 34.547], [118.009, 34.536], [117.975, 34.526], [117.942, 34.522], [117.916, 34.529], [117.888, 34.542], [117.855, 34.542], [117.827, 34.536], [117.796, 34.522], [117.87, 34.509], [117.896, 34.5], [117.902, 34.484], [117.861, 34.441], [117.835, 34.401], [117.822, 34.37], [117.808, 34.326], [117.803, 34.281], [117.795, 34.241], [117.787, 34.22], [117.777, 34.213], [117.761, 34.219], [117.686, 34.228], [117.653, 34.237], [117.644, 34.234], [117.63, 34.175], [117.621, 34.123], [117.604, 34.085], [117.598, 34.054], [117.586, 34.041], [117.615, 34.037], [117.594, 34.023], [117.598, 34.015], [117.627, 33.997], [117.642, 33.979], [117.656, 33.955], [117.651, 33.923], [117.636, 33.899], [117.642, 33.874], [117.655, 33.865], [117.667, 33.839], [117.68, 33.826], [117.733, 33.792], [117.74, 33.783], [117.737, 33.764], [117.718, 33.747], [117.696, 33.743], [117.688, 33.706], [117.692, 33.604], [117.664, 33.604], [117.647, 33.595], [117.654, 33.569], [117.654, 33.551], [117.633, 33.543], [117.627, 33.517], [117.646, 33.491], [117.665, 33.486], [117.65, 33.462], [117.653, 33.439], [117.665, 33.426], [117.67, 33.41], [117.663, 33.384], [117.669, 33.379], [117.638, 33.335], [117.663, 33.33], [117.666, 33.318], [117.685, 33.307], [117.687, 33.293], [117.705, 33.285], [117.723, 33.286], [117.733, 33.277], [117.776, 33.284], [117.798, 33.28], [117.804, 33.298], [117.82, 33.301], [117.834, 33.296], [117.848, 33.304], [117.854, 33.327], [117.898, 33.333], [117.933, 33.331], [117.976, 33.332], [117.962, 33.351], [117.988, 33.351], [118.036, 33.359], [118.07, 33.35], [118.12, 33.346], [118.179, 33.361], [118.201, 33.36], [118.22, 33.35], [118.281, 33.368], [118.314, 33.372], [118.392, 33.353], [118.445, 33.362], [118.48, 33.384], [118.518, 33.398], [118.556, 33.407], [118.61, 33.412], [118.625, 33.407], [118.669, 33.403], [118.722, 33.401], [118.748, 33.376]]]}, "properties": {"NAME_PY": "Xiapi Jun", "NAME_CH": "下邳郡", "NAME_FT": "下邳郡", "X_COOR": 0, "Y_COOR": 0, "PERS_LOC": "", "TYPE_PY": "Jun", "TYPE_CH": "郡", "LEV_RANK": "3", "BEG_YR": 280, "BEG_RULE": "4", "END_YR": 323, "END_RULE": "4", "NOTE_ID": 91510, "OBJ_TYPE": "POLYGON", "SYS_ID": 91510, "GEO_SRC": "FROM_FD", "COMPILER": "王文楚", "GECOMPLR": "满志敏", "CHECKER": "", "ENT_DATE": "2005/01/25", "BEG_CHG_TY": "辖区缩小", "END_CHG_TY": "暂无", "POWER": "魏"}}, {"type": "Feature", "geometry": {"type": "MultiPolygon", "coordinates": [[[[118.748, 33.376], [118.722, 33.401], [118.669, 33.403], [118.625, 33.407], [118.61, 33.412], [118.556, 33.407], [118.518, 33.398], [118.48, 33.384], [118.445, 33.362], [118.392, 33.353], [118.314, 33.372], [118.281, 33.368], [118.22, 33.35], [118.201, 33.36], [118.179, 33.361], [118.12, 33.346], [118.07, 33.35], [118.036, 33.359], [117.988, 33.351], [117.962, 33.351], [117.976, 33.332], [117.98, 33.314], [117.967, 33.283], [117.938, 33.265], [117.94, 33.246], [117.932, 33.227], [117.947, 33.224], [117.969, 33.23], [117.977, 33.226], [117.99, 33.201], [117.981, 33.184], [117.996, 33.17], [118.028, 33.159], [118.033, 33.143], [118.017, 33.137], [117.999, 33.147], [117.985, 33.148], [117.954, 33.139], [117.912, 33.153], [117.892, 33.139], [117.886, 33.121], [117.887, 33.106], [117.9, 33.076], [117.884, 33.042], [117.861, 33.014], [117.894, 32.992], [117.909, 32.99], [117.924, 32.998], [117.922, 32.965], [117.928, 32.941], [117.919, 32.914], [117.904, 32.897], [117.904, 32.878], [117.913, 32.854], [117.903, 32.84], [117.898, 32.822], [117.912, 32.786], [117.936, 32.778], [117.94, 32.765], [117.926, 32.754], [117.929, 32.741], [117.922, 32.73], [117.926, 32.716], [117.918, 32.693], [117.937, 32.676], [117.939, 32.645], [117.953, 32.636], [117.994, 32.626], [118.016, 32.615], [118.054, 32.612], [118.064, 32.608], [118.076, 32.582], [118.073, 32.552], [118.099, 32.547], [118.116, 32.549], [118.17, 32.566], [118.199, 32.587], [118.206, 32.616], [118.23, 32.637], [118.263, 32.641], [118.292, 32.634], [118.323, 32.618], [118.367, 32.62], [118.39, 32.634], [118.421, 32.659], [118.425, 32.681], [118.415, 32.698], [118.415, 32.717], [118.443, 32.741], [118.459, 32.756], [118.491, 32.774], [118.538, 32.796], [118.595, 32.82], [118.647, 32.846], [118.692, 32.863], [118.734, 32.895], [118.767, 32.924], [118.806, 32.973], [118.826, 33.003], [118.971, 33.027], [118.967, 33.071], [118.945, 33.072], [118.932, 33.084], [118.946, 33.105], [118.955, 33.126], [118.942, 33.137], [118.948, 33.172], [118.95, 33.207], [118.927, 33.254], [118.914, 33.305], [118.895, 33.332], [118.874, 33.344], [118.87, 33.353], [118.843, 33.347], [118.807, 33.358], [118.757, 33.366], [118.748, 33.376]]], [[[119.133, 34.197], [119.112, 34.188], [119.083, 34.183], [119.022, 34.181], [118.992, 34.175], [118.904, 34.163], [118.81, 34.157], [118.776, 34.152], [118.744, 34.143], [118.71, 34.14], [118.686, 34.142], [118.643, 34.152], [118.613, 34.147], [118.585, 34.156], [118.499, 34.208], [118.468, 34.233], [118.452, 34.238], [118.373, 34.25], [118.365, 34.255], [118.367, 34.272], [118.377, 34.282], [118.363, 34.296], [118.355, 34.329], [118.372, 34.349], [118.375, 34.369], [118.385, 34.382], [118.399, 34.425], [118.4, 34.438], [118.368, 34.422], [118.295, 34.429], [118.279, 34.423], [118.261, 34.409], [118.236, 34.41], [118.206, 34.42], [118.198, 34.427], [118.193, 34.42], [118.155, 34.345], [118.149, 34.317], [118.117, 34.27], [118.112, 34.251], [118.1, 34.228], [118.073, 34.213], [118.071, 34.194], [118.051, 34.154], [118.045, 34.096], [118.055, 34.07], [118.055, 34.043], [118.06, 34.025], [118.075, 34.017], [118.104, 34.013], [118.114, 34.005], [118.124, 33.95], [118.136, 33.931], [118.144, 33.897], [118.163, 33.887], [118.171, 33.871], [118.186, 33.855], [118.217, 33.829], [118.248, 33.811], [118.273, 33.804], [118.344, 33.799], [118.372, 33.795], [118.371, 33.777], [118.393, 33.779], [118.441, 33.795], [118.476, 33.827], [118.497, 33.837], [118.526, 33.843], [118.557, 33.861], [118.584, 33.86], [118.614, 33.831], [118.651, 33.817], [118.693, 33.814], [118.706, 33.821], [118.731, 33.824], [118.763, 33.814], [118.811, 33.792], [118.823, 33.773], [118.837, 33.766], [118.853, 33.763], [118.882, 33.749], [118.893, 33.749], [118.93, 33.732], [118.979, 33.704], [118.999, 33.707], [119.042, 33.707], [119.11, 33.693], [119.094, 33.745], [119.095, 33.756], [119.096, 33.76], [119.095, 33.773], [119.083, 33.783], [119.092, 33.81], [119.09, 33.824], [119.065, 33.829], [119.05, 33.837], [119.03, 33.856], [119.031, 33.869], [118.996, 33.883], [118.995, 33.903], [119.025, 33.918], [119.028, 33.936], [119.038, 33.958], [119.036, 33.973], [119.044, 34.004], [119.045, 34.025], [119.057, 34.032], [119.093, 34.027], [119.111, 34.014], [119.135, 33.985], [119.151, 33.983], [119.196, 34.003], [119.211, 34.03], [119.198, 34.058], [119.198, 34.071], [119.183, 34.091], [119.155, 34.11], [119.164, 34.118], [119.155, 34.138], [119.14, 34.137], [119.13, 34.149], [119.139, 34.162], [119.14, 34.18], [119.133, 34.197]]]]}, "properties": {"NAME_PY": "Linhuai Jun", "NAME_CH": "临淮郡", "NAME_FT": "臨淮郡", "X_COOR": 0, "Y_COOR": 0, "PERS_LOC": "", "TYPE_PY": "Jun", "TYPE_CH": "郡", "LEV_RANK": "3", "BEG_YR": 280, "BEG_RULE": "4", "END_YR": 323, "END_RULE": "4", "NOTE_ID": 91511, "OBJ_TYPE": "POLYGON", "SYS_ID": 91511, "GEO_SRC": "FROM_FD", "COMPILER": "王文楚", "GECOMPLR": "满志敏", "CHECKER": "", "ENT_DATE": "2005/01/25", "BEG_CHG_TY": "新建", "END_CHG_TY": "暂无", "POWER": "魏"}}, {"type": "Feature", "geometry": {"type": "MultiPolygon", "coordinates": [[[[116.726, 34.927], [116.725, 34.915], [116.74, 34.902], [116.719, 34.89], [116.718, 34.856], [116.701, 34.82], [116.684, 34.812], [116.68, 34.797], [116.7, 34.782], [116.714, 34.753], [116.689, 34.729], [116.694, 34.704], [116.704, 34.688], [116.727, 34.682], [116.736, 34.67], [116.757, 34.657], [116.76, 34.64], [116.791, 34.634], [116.793, 34.625], [116.765, 34.611], [116.763, 34.596], [116.78, 34.574], [116.805, 34.556], [116.86, 34.555], [116.874, 34.558], [116.933, 34.559], [116.937, 34.578], [116.953, 34.597], [116.962, 34.63], [116.967, 34.678], [116.967, 34.705], [116.966, 34.733], [116.969, 34.766], [116.964, 34.799], [116.976, 34.839], [116.97, 34.87], [116.962, 34.876], [116.978, 34.892], [116.988, 34.918], [117.008, 34.939], [117.02, 34.943], [117.04, 34.97], [117.046, 34.985], [117.053, 35.049], [117.04, 35.059], [117.005, 35.074], [116.958, 35.081], [116.927, 35.079], [116.914, 35.07], [116.902, 35.05], [116.887, 35.017], [116.881, 34.985], [116.873, 34.913], [116.844, 34.929], [116.809, 34.929], [116.78, 34.944], [116.765, 34.918], [116.726, 34.927]]], [[[116.369, 34.641], [116.351, 34.63], [116.326, 34.626], [116.317, 34.605], [116.323, 34.586], [116.348, 34.567], [116.367, 34.528], [116.401, 34.491], [116.407, 34.469], [116.423, 34.434], [116.441, 34.403], [116.447, 34.386], [116.457, 34.336], [116.453, 34.304], [116.443, 34.281], [116.461, 34.272], [116.478, 34.287], [116.498, 34.298], [116.515, 34.297], [116.564, 34.285], [116.574, 34.279], [116.588, 34.278], [116.601, 34.287], [116.62, 34.319], [116.62, 34.349], [116.611, 34.373], [116.617, 34.385], [116.634, 34.392], [116.669, 34.391], [116.7, 34.385], [116.744, 34.382], [116.811, 34.387], [116.823, 34.39], [116.803, 34.41], [116.785, 34.421], [116.77, 34.444], [116.735, 34.471], [116.718, 34.478], [116.673, 34.477], [116.65, 34.479], [116.617, 34.49], [116.57, 34.49], [116.562, 34.501], [116.587, 34.511], [116.538, 34.547], [116.521, 34.548], [116.485, 34.574], [116.486, 34.59], [116.473, 34.605], [116.472, 34.616], [116.435, 34.625], [116.426, 34.636], [116.424, 34.654], [116.404, 34.652], [116.377, 34.639], [116.369, 34.641]]]]}, "properties": {"NAME_PY": "Pei Guo", "NAME_CH": "沛国", "NAME_FT": "沛國", "X_COOR": 0, "Y_COOR": 0, "PERS_LOC": "", "TYPE_PY": "Houguo", "TYPE_CH": "侯国", "LEV_RANK": "3", "BEG_YR": 232, "BEG_RULE": "4", "END_YR": 237, "END_RULE": "4", "NOTE_ID": 91291, "OBJ_TYPE": "POLYGON", "SYS_ID": 91291, "GEO_SRC": "FROM_FD", "COMPILER": "王文楚", "GECOMPLR": "满志敏", "CHECKER": "", "ENT_DATE": "2005/01/25", "BEG_CHG_TY": "更名", "END_CHG_TY": "辖区扩大", "POWER": "魏"}}, {"type": "Feature", "geometry": {"type": "Polygon", "coordinates": [[[117.02, 34.943], [117.04, 34.97], [117.046, 34.985], [117.053, 35.049], [117.04, 35.059], [117.005, 35.074], [116.958, 35.081], [116.927, 35.079], [116.914, 35.07], [116.902, 35.05], [116.887, 35.017], [116.881, 34.985], [116.873, 34.913], [116.844, 34.929], [116.809, 34.929], [116.78, 34.944], [116.765, 34.918], [116.726, 34.927], [116.698, 34.935], [116.618, 34.938], [116.599, 34.923], [116.546, 34.911], [116.518, 34.909], [116.46, 34.898], [116.443, 34.901], [116.433, 34.88], [116.413, 34.866], [116.403, 34.839], [116.4, 34.813], [116.399, 34.764], [116.393, 34.754], [116.376, 34.754], [116.36, 34.744], [116.357, 34.724], [116.382, 34.715], [116.388, 34.707], [116.373, 34.686], [116.374, 34.673], [116.359, 34.653], [116.369, 34.641], [116.351, 34.63], [116.326, 34.626], [116.317, 34.605], [116.323, 34.586], [116.348, 34.567], [116.367, 34.528], [116.401, 34.491], [116.407, 34.469], [116.423, 34.434], [116.441, 34.403], [116.447, 34.386], [116.457, 34.336], [116.453, 34.304], [116.443, 34.281], [116.461, 34.272], [116.478, 34.287], [116.498, 34.298], [116.515, 34.297], [116.564, 34.285], [116.574, 34.279], [116.588, 34.278], [116.601, 34.287], [116.62, 34.319], [116.62, 34.349], [116.611, 34.373], [116.617, 34.385], [116.634, 34.392], [116.669, 34.391], [116.7, 34.385], [116.744, 34.382], [116.811, 34.387], [116.823, 34.39], [116.862, 34.393], [116.879, 34.404], [116.904, 34.41], [116.941, 34.397], [116.944, 34.443], [116.943, 34.498], [116.936, 34.528], [116.933, 34.559], [116.937, 34.578], [116.953, 34.597], [116.962, 34.63], [116.967, 34.678], [116.967, 34.705], [116.998, 34.712], [117.024, 34.702], [117.073, 34.704], [117.121, 34.73], [117.139, 34.759], [117.163, 34.79], [117.179, 34.826], [117.154, 34.836], [117.12, 34.865], [117.128, 34.898], [117.11, 34.91], [117.098, 34.939], [117.085, 34.942], [117.062, 34.931], [117.043, 34.933], [117.02, 34.943]]]}, "properties": {"NAME_PY": "Pei Guo", "NAME_CH": "沛国", "NAME_FT": "沛國", "X_COOR": 0, "Y_COOR": 0, "PERS_LOC": "", "TYPE_PY": "Houguo", "TYPE_CH": "侯国", "LEV_RANK": "3", "BEG_YR": 238, "BEG_RULE": "4", "END_YR": 264, "END_RULE": "4", "NOTE_ID": 91290, "OBJ_TYPE": "POLYGON", "SYS_ID": 91290, "GEO_SRC": "FROM_FD", "COMPILER": "王文楚", "GECOMPLR": "满志敏", "CHECKER": "", "ENT_DATE": "2005/01/25", "BEG_CHG_TY": "辖区扩大", "END_CHG_TY": "辖区扩大", "POWER": "魏"}}, {"type": "Feature", "geometry": {"type": "Polygon", "coordinates": [[[116.969, 34.091], [116.975, 34.125], [116.974, 34.152], [117.011, 34.178], [117.019, 34.179], [117.028, 34.2], [117.05, 34.234], [117.046, 34.244], [117.028, 34.245], [116.965, 34.282], [116.972, 34.312], [116.959, 34.321], [116.971, 34.338], [116.973, 34.363], [116.958, 34.366], [116.959, 34.391], [116.941, 34.397], [116.944, 34.443], [116.943, 34.498], [116.936, 34.528], [116.933, 34.559], [116.937, 34.578], [116.953, 34.597], [116.962, 34.63], [116.967, 34.678], [116.967, 34.705], [116.998, 34.712], [117.024, 34.702], [117.073, 34.704], [117.121, 34.73], [117.139, 34.759], [117.163, 34.79], [117.179, 34.826], [117.154, 34.836], [117.12, 34.865], [117.128, 34.898], [117.11, 34.91], [117.098, 34.939], [117.085, 34.942], [117.062, 34.931], [117.043, 34.933], [117.02, 34.943], [117.04, 34.97], [117.046, 34.985], [117.053, 35.049], [117.04, 35.059], [117.005, 35.074], [116.958, 35.081], [116.927, 35.079], [116.914, 35.07], [116.902, 35.05], [116.887, 35.017], [116.881, 34.985], [116.873, 34.913], [116.844, 34.929], [116.809, 34.929], [116.78, 34.944], [116.765, 34.918], [116.726, 34.927], [116.698, 34.935], [116.618, 34.938], [116.599, 34.923], [116.546, 34.911], [116.518, 34.909], [116.46, 34.898], [116.443, 34.901], [116.433, 34.88], [116.413, 34.866], [116.403, 34.839], [116.4, 34.813], [116.399, 34.764], [116.393, 34.754], [116.376, 34.754], [116.36, 34.744], [116.357, 34.724], [116.382, 34.715], [116.388, 34.707], [116.373, 34.686], [116.374, 34.673], [116.359, 34.653], [116.369, 34.641], [116.351, 34.63], [116.326, 34.626], [116.317, 34.605], [116.323, 34.586], [116.348, 34.567], [116.367, 34.528], [116.401, 34.491], [116.407, 34.469], [116.423, 34.434], [116.441, 34.403], [116.447, 34.386], [116.457, 34.336], [116.453, 34.304], [116.443, 34.281], [116.461, 34.272], [116.478, 34.287], [116.498, 34.298], [116.515, 34.297], [116.564, 34.285], [116.574, 34.279], [116.573, 34.268], [116.542, 34.241], [116.537, 34.229], [116.545, 34.208], [116.561, 34.194], [116.561, 34.171], [116.533, 34.156], [116.522, 34.117], [116.529, 34.106], [116.545, 34.103], [116.56, 34.093], [116.575, 34.064], [116.594, 34.044], [116.607, 34.003], [116.634, 33.988], [116.645, 33.972], [116.635, 33.948], [116.641, 33.931], [116.634, 33.919], [116.641, 33.878], [116.705, 33.829], [116.741, 33.77], [116.816, 33.73], [116.856, 33.697], [116.866, 33.673], [116.867, 33.652], [116.855, 33.628], [116.864, 33.596], [116.887, 33.579], [116.907, 33.578], [116.952, 33.547], [117.011, 33.53], [117.141, 33.518], [117.216, 33.495], [117.299, 33.482], [117.298, 33.504], [117.29, 33.532], [117.278, 33.553], [117.278, 33.58], [117.291, 33.587], [117.319, 33.579], [117.35, 33.593], [117.369, 33.591], [117.375, 33.614], [117.393, 33.635], [117.4, 33.665], [117.397, 33.685], [117.398, 33.731], [117.38, 33.749], [117.375, 33.76], [117.376, 33.792], [117.402, 33.8], [117.401, 33.817], [117.424, 33.824], [117.41, 33.848], [117.409, 33.866], [117.424, 33.89], [117.423, 33.909], [117.399, 33.935], [117.393, 33.917], [117.377, 33.897], [117.363, 33.887], [117.343, 33.883], [117.311, 33.884], [117.296, 33.897], [117.295, 33.92], [117.271, 33.948], [117.25, 33.955], [117.22, 33.956], [117.188, 33.961], [117.149, 33.972], [117.079, 33.974], [117.035, 33.985], [117.018, 33.95], [116.992, 33.937], [116.976, 33.957], [116.958, 33.97], [116.955, 33.988], [116.961, 34.017], [116.947, 34.053], [116.966, 34.083], [116.969, 34.091]]]}, "properties": {"NAME_PY": "Pei Guo", "NAME_CH": "沛国", "NAME_FT": "沛國", "X_COOR": 0, "Y_COOR": 0, "PERS_LOC": "", "TYPE_PY": "Houguo", "TYPE_CH": "侯国", "LEV_RANK": "3", "BEG_YR": 265, "BEG_RULE": "4", "END_YR": 310, "END_RULE": "4", "NOTE_ID": 91289, "OBJ_TYPE": "POLYGON", "SYS_ID": 91289, "GEO_SRC": "FROM_FD", "COMPILER": "王文楚", "GECOMPLR": "满志敏", "CHECKER": "", "ENT_DATE": "2005/01/25", "BEG_CHG_TY": "辖区扩大", "END_CHG_TY": "暂无", "POWER": "魏"}}]}