{
  "type": "FeatureCollection",
  "features": [
    { "type": "Feature", "properties": { "name": "京沪线", "note": "北京—上海" }, "geometry": { "type": "LineString", "coordinates": [[116.4,39.9],[117.2,39.1],[117.0,36.65],[117.2,34.26],[118.78,32.06],[121.47,31.23]] } },
    { "type": "Feature", "properties": { "name": "京广线", "note": "北京—广州" }, "geometry": { "type": "LineString", "coordinates": [[116.4,39.9],[114.48,38.03],[113.65,34.76],[114.3,30.6],[112.98,28.19],[113.26,23.13]] } },
    { "type": "Feature", "properties": { "name": "京哈线", "note": "北京—哈尔滨" }, "geometry": { "type": "LineString", "coordinates": [[116.4,39.9],[123.43,41.8],[125.32,43.89],[126.63,45.75]] } },
    { "type": "Feature", "properties": { "name": "陇海线", "note": "连云港—兰州" }, "geometry": { "type": "LineString", "coordinates": [[119.22,34.6],[117.2,34.26],[113.65,34.76],[108.94,34.34],[103.82,36.06]] } },
    { "type": "Feature", "properties": { "name": "沪昆线", "note": "上海—昆明" }, "geometry": { "type": "LineString", "coordinates": [[121.47,31.23],[120.16,30.29],[115.89,28.68],[112.98,28.19],[106.71,26.57],[102.71,25.04]] } },
    { "type": "Feature", "properties": { "name": "宝成—成昆线", "note": "宝鸡—成都—昆明" }, "geometry": { "type": "LineString", "coordinates": [[107.15,34.38],[104.07,30.67],[102.71,25.04]] } },
    { "type": "Feature", "properties": { "name": "京包—包兰线", "note": "北京—包头—兰州" }, "geometry": { "type": "LineString", "coordinates": [[116.4,39.9],[114.87,40.82],[111.65,40.82],[109.84,40.66],[106.27,38.47],[103.82,36.06]] } },
    { "type": "Feature", "properties": { "name": "青藏铁路", "note": "西宁—拉萨" }, "geometry": { "type": "LineString", "coordinates": [[101.77,36.62],[94.9,36.4],[91.11,29.97]] } }
  ]
}
