{
  "type": "FeatureCollection",
  "features": [
    {
      "type": "Feature",
      "properties": { "name": "古希腊文化圈（约前500年）", "category": "希腊文化圈", "note": "以爱琴海为中心，包括希腊本土、爱琴海诸岛、小亚细亚西岸殖民地，以及散布于南意大利、西西里和黑海沿岸的殖民城邦。" },
      "geometry": {
        "type": "Polygon",
        "coordinates": [[
          [19.0, 36.0], [19.5, 38.0], [19.0, 39.5], [20.5, 40.5], [22.0, 41.0],
          [24.0, 40.8], [26.0, 40.5], [27.5, 39.5], [29.0, 38.5], [30.5, 37.5],
          [30.0, 36.5], [28.0, 36.5], [26.5, 36.8], [25.5, 36.2], [24.5, 35.3],
          [23.0, 35.5], [22.0, 36.5], [21.0, 36.8], [19.0, 36.0]
        ]]
      }
    },
    {
      "type": "Feature",
      "properties": { "name": "大希腊（南意大利殖民地）", "category": "希腊文化圈", "note": "前8—前6世纪希腊人在南意大利和西西里建立的殖民城邦群，史称大希腊（Magna Graecia）。" },
      "geometry": {
        "type": "Polygon",
        "coordinates": [[
          [15.0, 38.0], [16.0, 40.0], [17.5, 40.5], [18.5, 40.0], [17.5, 38.5],
          [16.5, 37.8], [15.5, 37.5], [15.0, 38.0]
        ]]
      }
    }
  ]
}
