{
  "type": "FeatureCollection",
  "features": [
    {
      "type": "Feature",
      "properties": { "name": "罗马帝国极盛疆域（117年图拉真时代）", "category": "罗马帝国", "note": "西起不列颠，东至两河流域，北抵莱茵河—多瑙河，南括北非，地中海成为帝国的内湖，人口约6000万。" },
      "geometry": {
        "type": "Polygon",
        "coordinates": [[
          [-6.0, 36.0], [-9.0, 37.0], [-9.5, 43.0], [-5.0, 43.5], [-2.0, 43.5],
          [0.0, 46.0], [2.0, 48.5], [5.0, 50.0], [7.0, 50.5], [8.0, 48.5],
          [10.0, 47.0], [13.0, 46.5], [16.0, 46.5], [19.0, 45.5], [22.0, 44.5],
          [24.0, 44.0], [26.0, 43.5], [28.0, 43.5], [29.5, 44.5], [28.5, 45.5],
          [29.5, 46.5], [30.5, 46.0], [31.5, 46.5], [33.0, 46.0], [35.0, 45.5],
          [36.5, 45.0], [38.0, 44.0], [39.5, 43.0], [40.5, 41.5], [41.5, 40.5],
          [43.0, 39.0], [44.5, 37.5], [44.0, 35.5], [42.5, 34.0], [41.0, 33.0],
          [39.5, 32.5], [37.5, 32.5], [36.0, 32.0], [35.5, 31.0], [34.5, 29.5],
          [33.0, 27.5], [32.5, 25.0], [30.0, 24.0], [25.0, 24.5], [20.0, 25.5],
          [15.0, 27.0], [11.0, 29.0], [10.0, 31.0], [9.5, 33.0], [8.0, 34.5],
          [6.5, 35.0], [3.0, 36.5], [0.0, 35.5], [-2.5, 35.0], [-5.5, 35.8],
          [-6.0, 36.0]
        ]]
      }
    }
  ]
}
